"attestation_id","attestation_file","attestation_cid","certificate","certificate_cid","reportingStart","reportingStartTimezoneOffset","reportingEnd","reportingEndTimezoneOffset","sellerName","sellerAddress","country","region","volume_Wh","generatorName","productType","label","energySource","generationStart","generationStartTimezoneOffset","generationEnd","generationEndTimezoneOffset"
"20211115_3D_PL_transaction_1_attestation_1","AU_LGC_14MWh_year2021.pdf","bafybeieqknjcr4fmttaidpnwd5cudyztyv63rrtb4cm43ynzmietbynbqa","AU_LGC_14MWh_year2021_certificate_1","bafyreie4ownmpuswjxxvuslntcdjbw5jvptag7ykzqx3bc4soshwwxqqfa","2021-01-01T00:00:00.000Z",600,"2021-12-31T23:59:59.999Z",600,"3Degrees Group, Inc","235 Montgomery St Suite 320 CA94104 San Francisco US","AU",,14000000,"Jemalong Solar Project (SRPVNSW3)","LGC",,"SOLAR","2021-01-01T00:00:00.000Z",600,"2021-12-31T23:59:59.999Z",600
"20211115_3D_PL_transaction_1_attestation_2","CA_GreenE_34MWh_Dec2020_to_June2021.pdf","bafybeifgo7qmwgngdlfxkmsxm4ejjxvpjdgcjqrx5jiz3x6i62w2n7ciau","CA_GreenE_34MWh_Dec2020_to_June2021_certificate_1","bafyreifom3wdjww3oittjmzxtv5dj5cvnelpjd2qlxldqa4yprunqhqmsy","2020-12-01T00:00:00.000Z",-420,"2020-12-31T23:59:59.999Z",-420,"3Degrees Group, Inc","235 Montgomery St Suite 320 CA94104 San Francisco US","CA",,5000000,"Zurich CGS","REC","GREEN_E_ENERGY","WIND","2020-12-01T00:00:00.000Z",-420,"2020-12-31T23:59:59.999Z",-420
"20211115_3D_PL_transaction_1_attestation_2","CA_GreenE_34MWh_Dec2020_to_June2021.pdf","bafybeifgo7qmwgngdlfxkmsxm4ejjxvpjdgcjqrx5jiz3x6i62w2n7ciau","CA_GreenE_34MWh_Dec2020_to_June2021_certificate_2","bafyreiasoiuxhre3f2rlw73hzb5kmbpizklbjwak5e5cmfnc4ttpkorsdy","2021-01-01T00:00:00.000Z",-420,"2021-01-31T23:59:59.999Z",-420,"3Degrees Group, Inc","235 Montgomery St Suite 320 CA94104 San Francisco US","CA",,5000000,"Zurich CGS","REC","GREEN_E_ENERGY","WIND","2021-01-01T00:00:00.000Z",-420,"2021-01-31T23:59:59.999Z",-420
"20211115_3D_PL_transaction_1_attestation_2","CA_GreenE_34MWh_Dec2020_to_June2021.pdf","bafybeifgo7qmwgngdlfxkmsxm4ejjxvpjdgcjqrx5jiz3x6i62w2n7ciau","CA_GreenE_34MWh_Dec2020_to_June2021_certificate_3","bafyreigyl6eflbtuhjxokargm2r7c4vc4lz2u2qyzyn6pqmplzyrfkutie","2021-02-01T00:00:00.000Z",-420,"2021-02-28T23:59:59.999Z",-420,"3Degrees Group, Inc","235 Montgomery St Suite 320 CA94104 San Francisco US","CA",,6000000,"St. Joseph Wind Farm","REC","GREEN_E_ENERGY","WIND","2021-02-01T00:00:00.000Z",-420,"2021-02-28T23:59:59.999Z",-420
"20211115_3D_PL_transaction_1_attestation_2","CA_GreenE_34MWh_Dec2020_to_June2021.pdf","bafybeifgo7qmwgngdlfxkmsxm4ejjxvpjdgcjqrx5jiz3x6i62w2n7ciau","CA_GreenE_34MWh_Dec2020_to_June2021_certificate_4","bafyreihq2vtz6o6iom7xwkcly2clqsl4stxiriml4y2ki34xqegh7bl7ri","2021-03-01T00:00:00.000Z",-360,"2021-03-31T23:59:59.999Z",-360,"3Degrees Group, Inc","235 Montgomery St Suite 320 CA94104 San Francisco US","CA",,6000000,"St. Joseph Wind Farm","REC","GREEN_E_ENERGY","WIND","2021-03-01T00:00:00.000Z",-360,"2021-03-31T23:59:59.999Z",-360
"20211115_3D_PL_transaction_1_attestation_2","CA_GreenE_34MWh_Dec2020_to_June2021.pdf","bafybeifgo7qmwgngdlfxkmsxm4ejjxvpjdgcjqrx5jiz3x6i62w2n7ciau","CA_GreenE_34MWh_Dec2020_to_June2021_certificate_5","bafyreiciil6neluq3bq4hnx3ec56gmbypntjjfzhzh56llgur3qfbtneau","2021-04-01T00:00:00.000Z",-360,"2021-04-30T23:59:59.999Z",-360,"3Degrees Group, Inc","235 Montgomery St Suite 320 CA94104 San Francisco US","CA",,5000000,"Hermanville Wind Farm","REC","GREEN_E_ENERGY","WIND","2021-04-01T00:00:00.000Z",-360,"2021-04-30T23:59:59.999Z",-360
"20211115_3D_PL_transaction_1_attestation_2","CA_GreenE_34MWh_Dec2020_to_June2021.pdf","bafybeifgo7qmwgngdlfxkmsxm4ejjxvpjdgcjqrx5jiz3x6i62w2n7ciau","CA_GreenE_34MWh_Dec2020_to_June2021_certificate_6","bafyreigegavns6mwobns5bgrqk3qrtvdzyojfprzlhbqkzfl6l4ggotobq","2021-05-01T00:00:00.000Z",-360,"2021-05-31T23:59:59.999Z",-360,"3Degrees Group, Inc","235 Montgomery St Suite 320 CA94104 San Francisco US","CA",,4000000,"Hermanville Wind Farm","REC","GREEN_E_ENERGY","WIND","2021-05-01T00:00:00.000Z",-360,"2021-05-31T23:59:59.999Z",-360
"20211115_3D_PL_transaction_1_attestation_2","CA_GreenE_34MWh_Dec2020_to_June2021.pdf","bafybeifgo7qmwgngdlfxkmsxm4ejjxvpjdgcjqrx5jiz3x6i62w2n7ciau","CA_GreenE_34MWh_Dec2020_to_June2021_certificate_7","bafyreidwpnt7rpitu7oj2yhpx6yegebxpks2yadcognaji55saqkgaes6e","2021-06-01T00:00:00.000Z",-360,"2021-06-30T23:59:59.999Z",-360,"3Degrees Group, Inc","235 Montgomery St Suite 320 CA94104 San Francisco US","CA",,3000000,"Hermanville Wind Farm","REC","GREEN_E_ENERGY","WIND","2021-06-01T00:00:00.000Z",-360,"2021-06-30T23:59:59.999Z",-360
"20211115_3D_PL_transaction_1_attestation_3","CA_GreenE_8MWh_Jul2021_to_Aug2021.pdf","bafybeievjsdut34kt36ysc64nfumvyjz63bgd6g6q6wfzg25cyguftvj4i","CA_GreenE_8MWh_Jul2021_to_Aug2021_certificate_1","bafyreifskbdtvkab46tpwwrnngcnlhkzeh7hexhpnyrgwcyho4csbcf3ae","2021-07-01T00:00:00.000Z",-360,"2021-07-31T23:59:59.999Z",-360,"3Degrees Group, Inc","235 Montgomery St Suite 320 CA94104 San Francisco US","CA",,4000000,"Zurich CGS","REC","GREEN_E_ENERGY","WIND","2021-07-01T00:00:00.000Z",-360,"2021-07-31T23:59:59.999Z",-360
"20211115_3D_PL_transaction_1_attestation_3","CA_GreenE_8MWh_Jul2021_to_Aug2021.pdf","bafybeievjsdut34kt36ysc64nfumvyjz63bgd6g6q6wfzg25cyguftvj4i","CA_GreenE_8MWh_Jul2021_to_Aug2021_certificate_2","bafyreibgkdjhthfbzh4kr5v5fy3r2rlruznr7pqzkks55pfzzf6ruoepj4","2021-08-01T00:00:00.000Z",-360,"2021-08-31T23:59:59.999Z",-360,"3Degrees Group, Inc","235 Montgomery St Suite 320 CA94104 San Francisco US","CA",,4000000,"Zurich CGS","REC","GREEN_E_ENERGY","WIND","2021-08-01T00:00:00.000Z",-360,"2021-08-31T23:59:59.999Z",-360
"20211115_3D_PL_transaction_1_attestation_4","CN_IREC_82583MWh_Jan2021_to_August2021.pdf","bafkreigezmnznzlzekq3bnhmy6miqna3ek4lbsny67egmgjrb7enitblym","CN_IREC_82583MWh_Jan2021_to_August2021_certificate_1","bafyreicoh2gx7zwvwteaug3try3qywtz2b47n5nbyftmi7i5hlyycslpoe","2021-05-01T00:00:00.000Z",480,"2021-05-31T23:59:59.999Z",480,"3Degrees Group, Inc","235 Montgomery St Suite 320 CA94104 San Francisco US","CN",,6760000000,"Jilin Xiangyang 1st phase Wind Power Project","IREC",,"WIND","2021-05-01T00:00:00.000Z",480,"2021-05-31T23:59:59.999Z",480
"20211115_3D_PL_transaction_1_attestation_4","CN_IREC_82583MWh_Jan2021_to_August2021.pdf","bafkreigezmnznzlzekq3bnhmy6miqna3ek4lbsny67egmgjrb7enitblym","CN_IREC_82583MWh_Jan2021_to_August2021_certificate_2","bafyreihxcbax746fp4unnlyvo5mel2l5xz7gugsbstsijpktuhy2xnzcf4","2021-07-01T00:00:00.000Z",480,"2021-07-31T23:59:59.999Z",480,"3Degrees Group, Inc","235 Montgomery St Suite 320 CA94104 San Francisco US","CN",,12074000000,"Jilin Xiangyang 1st phase Wind Power Project","IREC",,"WIND","2021-07-01T00:00:00.000Z",480,"2021-07-31T23:59:59.999Z",480
"20211115_3D_PL_transaction_1_attestation_4","CN_IREC_82583MWh_Jan2021_to_August2021.pdf","bafkreigezmnznzlzekq3bnhmy6miqna3ek4lbsny67egmgjrb7enitblym","CN_IREC_82583MWh_Jan2021_to_August2021_certificate_3","bafyreibmrxrica7xtqskm4gmagwydiu5cmvmetqnd4srxml7otepe4slau","2021-08-01T00:00:00.000Z",480,"2021-08-31T23:59:59.999Z",480,"3Degrees Group, Inc","235 Montgomery St Suite 320 CA94104 San Francisco US","CN",,7111000000,"Jilin Xiangyang 1st phase Wind Power Project","IREC",,"WIND","2021-08-01T00:00:00.000Z",480,"2021-08-31T23:59:59.999Z",480
"20211115_3D_PL_transaction_1_attestation_4","CN_IREC_82583MWh_Jan2021_to_August2021.pdf","bafkreigezmnznzlzekq3bnhmy6miqna3ek4lbsny67egmgjrb7enitblym","CN_IREC_82583MWh_Jan2021_to_August2021_certificate_4","bafyreifpddfivr65cxejgoi53farx4a2pujphllhrk75jsuga2tbmy74q4","2021-02-01T00:00:00.000Z",480,"2021-02-28T23:59:59.999Z",480,"3Degrees Group, Inc","235 Montgomery St Suite 320 CA94104 San Francisco US","CN",,10000000000,"Jilin Xiangyang 1st phase Wind Power Project","IREC",,"WIND","2021-02-01T00:00:00.000Z",480,"2021-02-28T23:59:59.999Z",480
"20211115_3D_PL_transaction_1_attestation_4","CN_IREC_82583MWh_Jan2021_to_August2021.pdf","bafkreigezmnznzlzekq3bnhmy6miqna3ek4lbsny67egmgjrb7enitblym","CN_IREC_82583MWh_Jan2021_to_August2021_certificate_5","bafyreibbndzsd2dvc24lyrauta6rtvpice42w4s7ji5m6mamlrekhkh6e4","2021-03-01T00:00:00.000Z",480,"2021-03-31T23:59:59.999Z",480,"3Degrees Group, Inc","235 Montgomery St Suite 320 CA94104 San Francisco US","CN",,11000000000,"Jilin Xiangyang 1st phase Wind Power Project","IREC",,"WIND","2021-03-01T00:00:00.000Z",480,"2021-03-31T23:59:59.999Z",480
"20211115_3D_PL_transaction_1_attestation_4","CN_IREC_82583MWh_Jan2021_to_August2021.pdf","bafkreigezmnznzlzekq3bnhmy6miqna3ek4lbsny67egmgjrb7enitblym","CN_IREC_82583MWh_Jan2021_to_August2021_certificate_6","bafyreia5vl5c3wdzp2l7raib43kimyouax6lyijfnqqe3mvwoiq766dduy","2021-04-01T00:00:00.000Z",480,"2021-04-30T23:59:59.999Z",480,"3Degrees Group, Inc","235 Montgomery St Suite 320 CA94104 San Francisco US","CN",,11000000000,"Jilin Xiangyang 1st phase Wind Power Project","IREC",,"WIND","2021-04-01T00:00:00.000Z",480,"2021-04-30T23:59:59.999Z",480
"20211115_3D_PL_transaction_1_attestation_4","CN_IREC_82583MWh_Jan2021_to_August2021.pdf","bafkreigezmnznzlzekq3bnhmy6miqna3ek4lbsny67egmgjrb7enitblym","CN_IREC_82583MWh_Jan2021_to_August2021_certificate_7","bafyreidmof374g24d7wloy6bunmtq7psfiz6dlgk7fjn6osutumjckowv4","2021-06-01T00:00:00.000Z",480,"2021-06-30T23:59:59.999Z",480,"3Degrees Group, Inc","235 Montgomery St Suite 320 CA94104 San Francisco US","CN",,7000000000,"Jilin Xiangyang 1st phase Wind Power Project","IREC",,"WIND","2021-06-01T00:00:00.000Z",480,"2021-06-30T23:59:59.999Z",480
"20211115_3D_PL_transaction_1_attestation_4","CN_IREC_82583MWh_Jan2021_to_August2021.pdf","bafkreigezmnznzlzekq3bnhmy6miqna3ek4lbsny67egmgjrb7enitblym","CN_IREC_82583MWh_Jan2021_to_August2021_certificate_8","bafyreihzddcm5dwjaa3p5v7waa2lsxhs5qtidzrj4wjuup67rvtlbeqta4","2021-04-01T00:00:00.000Z",480,"2021-04-30T23:59:59.999Z",480,"3Degrees Group, Inc","235 Montgomery St Suite 320 CA94104 San Francisco US","CN",,330000000,"Xingshan Windfarm","IREC",,"WIND","2021-04-01T00:00:00.000Z",480,"2021-04-30T23:59:59.999Z",480
"20211115_3D_PL_transaction_1_attestation_4","CN_IREC_82583MWh_Jan2021_to_August2021.pdf","bafkreigezmnznzlzekq3bnhmy6miqna3ek4lbsny67egmgjrb7enitblym","CN_IREC_82583MWh_Jan2021_to_August2021_certificate_9","bafyreigpgiiuzwntybg2ec43dvmivxpbrcyy33a4sep6mx6gkrvqluwmgi","2021-06-01T00:00:00.000Z",480,"2021-06-30T23:59:59.999Z",480,"3Degrees Group, Inc","235 Montgomery St Suite 320 CA94104 San Francisco US","CN",,336000000,"Jingneng Saihan Wind Farm Phase III 49.5MW Project","IREC",,"WIND","2021-06-01T00:00:00.000Z",480,"2021-06-30T23:59:59.999Z",480
"20211115_3D_PL_transaction_1_attestation_4","CN_IREC_82583MWh_Jan2021_to_August2021.pdf","bafkreigezmnznzlzekq3bnhmy6miqna3ek4lbsny67egmgjrb7enitblym","CN_IREC_82583MWh_Jan2021_to_August2021_certificate_10","bafyreichuwmee6upo5iche376lxjrdepvnpp45xljojq4peozhe7icfrqu","2021-01-01T00:00:00.000Z",480,"2021-03-31T23:59:59.999Z",480,"3Degrees Group, Inc","235 Montgomery St Suite 320 CA94104 San Francisco US","CN",,10972000000,"Jingneng Saihan Wind Farm Phase III 49.5MW Project","IREC",,"WIND","2021-01-01T00:00:00.000Z",480,"2021-03-31T23:59:59.999Z",480
"20211115_3D_PL_transaction_1_attestation_4","CN_IREC_82583MWh_Jan2021_to_August2021.pdf","bafkreigezmnznzlzekq3bnhmy6miqna3ek4lbsny67egmgjrb7enitblym","CN_IREC_82583MWh_Jan2021_to_August2021_certificate_11","bafyreie2hwqgkixxni2cuelxghw6bpo4nhyzsxth66i76ell4stk2gppbm","2021-01-01T00:00:00.000Z",480,"2021-01-31T23:59:59.999Z",480,"3Degrees Group, Inc","235 Montgomery St Suite 320 CA94104 San Francisco US","CN",,6000000000,"Zhangbei Daxishan (Huashuling) Wind Farm Project ","IREC",,"WIND","2021-01-01T00:00:00.000Z",480,"2021-01-31T23:59:59.999Z",480
"20211115_3D_PL_transaction_1_attestation_5","GO_Cancellation_ProtocolLabs-Miner ID f01234_2021_Belgium_162.pdf","bafkreibqqorigtl6kij45gg5cx4guozmjnfbjoswruvjc43qiyo7dj2n6y","GO_Cancellation_ProtocolLabs-Miner ID f01234_2021_Belgium_162_certificate_1","bafyreiae5y4vxv4dg6hx425sxfpxsdj4on6islcwnyzxnxtcwrcol2rdjm","2021-01-31T00:00:00.000Z",60,"2021-01-31T23:59:59.999Z",60,"3Degrees Group, Inc","235 Montgomery St Suite 320 CA94104 San Francisco US","BE",,8000000,,"GO",,"WIND","2021-01-31T00:00:00.000Z",60,"2021-01-31T23:59:59.999Z",60
"20211115_3D_PL_transaction_1_attestation_5","GO_Cancellation_ProtocolLabs-Miner ID f01234_2021_Belgium_162.pdf","bafkreibqqorigtl6kij45gg5cx4guozmjnfbjoswruvjc43qiyo7dj2n6y","GO_Cancellation_ProtocolLabs-Miner ID f01234_2021_Belgium_162_certificate_2","bafyreidhcsbxxidadafmw4okxeg7gl5xxei5h7mn3emo5cjvusm35tej6e","2021-02-28T00:00:00.000Z",60,"2021-02-28T23:59:59.999Z",60,"3Degrees Group, Inc","235 Montgomery St Suite 320 CA94104 San Francisco US","BE",,12000000,,"GO",,"WIND","2021-02-28T00:00:00.000Z",60,"2021-02-28T23:59:59.999Z",60
"20211115_3D_PL_transaction_1_attestation_5","GO_Cancellation_ProtocolLabs-Miner ID f01234_2021_Belgium_162.pdf","bafkreibqqorigtl6kij45gg5cx4guozmjnfbjoswruvjc43qiyo7dj2n6y","GO_Cancellation_ProtocolLabs-Miner ID f01234_2021_Belgium_162_certificate_3","bafyreifzinedqlbv3rofo4knlhvtassiamq6qcrw27jgmuimbrlbqmjhcy","2021-03-31T00:00:00.000Z",120,"2021-03-31T23:59:59.999Z",120,"3Degrees Group, Inc","235 Montgomery St Suite 320 CA94104 San Francisco US","BE",,20000000,,"GO",,"WIND","2021-03-31T00:00:00.000Z",120,"2021-03-31T23:59:59.999Z",120
"20211115_3D_PL_transaction_1_attestation_5","GO_Cancellation_ProtocolLabs-Miner ID f01234_2021_Belgium_162.pdf","bafkreibqqorigtl6kij45gg5cx4guozmjnfbjoswruvjc43qiyo7dj2n6y","GO_Cancellation_ProtocolLabs-Miner ID f01234_2021_Belgium_162_certificate_4","bafyreiagj4mzybr6u3nir57exnyrruki5z3bccq64xy6sfhmdxr5xvdp5y","2021-07-31T00:00:00.000Z",120,"2021-07-31T23:59:59.999Z",120,"3Degrees Group, Inc","235 Montgomery St Suite 320 CA94104 San Francisco US","BE",,32000000,,"GO",,"WIND","2021-07-31T00:00:00.000Z",120,"2021-07-31T23:59:59.999Z",120
"20211115_3D_PL_transaction_1_attestation_5","GO_Cancellation_ProtocolLabs-Miner ID f01234_2021_Belgium_162.pdf","bafkreibqqorigtl6kij45gg5cx4guozmjnfbjoswruvjc43qiyo7dj2n6y","GO_Cancellation_ProtocolLabs-Miner ID f01234_2021_Belgium_162_certificate_5","bafyreidl62bq37ej7qxgc4kyzanplcks3wxdbxwatc2wfnwhj4eemztcp4","2021-04-30T00:00:00.000Z",120,"2021-04-30T23:59:59.999Z",120,"3Degrees Group, Inc","235 Montgomery St Suite 320 CA94104 San Francisco US","BE",,15000000,,"GO",,"WIND","2021-04-30T00:00:00.000Z",120,"2021-04-30T23:59:59.999Z",120
"20211115_3D_PL_transaction_1_attestation_5","GO_Cancellation_ProtocolLabs-Miner ID f01234_2021_Belgium_162.pdf","bafkreibqqorigtl6kij45gg5cx4guozmjnfbjoswruvjc43qiyo7dj2n6y","GO_Cancellation_ProtocolLabs-Miner ID f01234_2021_Belgium_162_certificate_6","bafyreie2iec7myom76cilmh3jbpcr3cvrro2eelqacq7qdf4minyghunbq","2021-05-31T00:00:00.000Z",120,"2021-05-31T23:59:59.999Z",120,"3Degrees Group, Inc","235 Montgomery St Suite 320 CA94104 San Francisco US","BE",,26000000,,"GO",,"WIND","2021-05-31T00:00:00.000Z",120,"2021-05-31T23:59:59.999Z",120
"20211115_3D_PL_transaction_1_attestation_5","GO_Cancellation_ProtocolLabs-Miner ID f01234_2021_Belgium_162.pdf","bafkreibqqorigtl6kij45gg5cx4guozmjnfbjoswruvjc43qiyo7dj2n6y","GO_Cancellation_ProtocolLabs-Miner ID f01234_2021_Belgium_162_certificate_7","bafyreigjcrrqojcyilkcm5qqqks33r5d75i53c5pomht43wmpjof2np27a","2021-06-30T00:00:00.000Z",120,"2021-06-30T23:59:59.999Z",120,"3Degrees Group, Inc","235 Montgomery St Suite 320 CA94104 San Francisco US","BE",,18000000,,"GO",,"WIND","2021-06-30T00:00:00.000Z",120,"2021-06-30T23:59:59.999Z",120
"20211115_3D_PL_transaction_1_attestation_5","GO_Cancellation_ProtocolLabs-Miner ID f01234_2021_Belgium_162.pdf","bafkreibqqorigtl6kij45gg5cx4guozmjnfbjoswruvjc43qiyo7dj2n6y","GO_Cancellation_ProtocolLabs-Miner ID f01234_2021_Belgium_162_certificate_8","bafyreibgeacwvtgcbuoxbpzvbcsyasz5wo7yih25tinaicozcaqv7femua","2021-08-31T00:00:00.000Z",120,"2021-08-31T23:59:59.999Z",120,"3Degrees Group, Inc","235 Montgomery St Suite 320 CA94104 San Francisco US","BE",,31000000,,"GO",,"WIND","2021-08-31T00:00:00.000Z",120,"2021-08-31T23:59:59.999Z",120
"20211115_3D_PL_transaction_1_attestation_6","GO_Cancellation_ProtocolLabs-Miner ID f02576_2021_Denmark_3.pdf","bafkreif5molfuvq2illmnaeate7b26iaimc72ji56glpey5orxf4ei62nq","GO_Cancellation_ProtocolLabs-Miner ID f02576_2021_Denmark_3_certificate_1","bafyreihv4z46cczdnghl5coxqdbn4zpoqpjhmkuvwikbu5pbdc2fvvh2ii","2021-01-01T00:00:00.000Z",120,"2021-12-31T23:59:59.999Z",120,"3Degrees Group, Inc","235 Montgomery St Suite 320 CA94104 San Francisco US","DK",,3000000,"570715000001542243","GO",,"WIND","2021-07-01T00:00:00.000Z",120,"2021-07-31T23:59:59.999Z",120
"20211115_3D_PL_transaction_1_attestation_7","GO_Cancellation_ProtocolLabs-Miner ID f02576_2021_Denmark_35.pdf","bafkreia22hex3hcdtu2m3sqhtjjjervydalwpqfqsxq7gmla3apilqvhti","GO_Cancellation_ProtocolLabs-Miner ID f02576_2021_Denmark_35_certificate_1","bafyreig7rq5z4ygppenunlkadgh3pvteb2lftjffunvqookdp7m6n3uame","2021-01-01T00:00:00.000Z",60,"2021-01-31T23:59:59.999Z",60,"3Degrees Group, Inc","235 Montgomery St Suite 320 CA94104 San Francisco US","DK",,16000000,"570715000000089299","GO",,"WIND","2021-01-01T00:00:00.000Z",60,"2021-01-31T23:59:59.999Z",60
"20211115_3D_PL_transaction_1_attestation_7","GO_Cancellation_ProtocolLabs-Miner ID f02576_2021_Denmark_35.pdf","bafkreia22hex3hcdtu2m3sqhtjjjervydalwpqfqsxq7gmla3apilqvhti","GO_Cancellation_ProtocolLabs-Miner ID f02576_2021_Denmark_35_certificate_2","bafyreiayobkt66tsujvudbj7w6syfmwcj4pvbucwr6cil5dzb6qoviyhii","2021-02-01T00:00:00.000Z",60,"2021-02-28T23:59:59.999Z",60,"3Degrees Group, Inc","235 Montgomery St Suite 320 CA94104 San Francisco US","DK",,3000000,"570715000000089299","GO",,"WIND","2021-02-01T00:00:00.000Z",60,"2021-02-28T23:59:59.999Z",60
"20211115_3D_PL_transaction_1_attestation_7","GO_Cancellation_ProtocolLabs-Miner ID f02576_2021_Denmark_35.pdf","bafkreia22hex3hcdtu2m3sqhtjjjervydalwpqfqsxq7gmla3apilqvhti","GO_Cancellation_ProtocolLabs-Miner ID f02576_2021_Denmark_35_certificate_3","bafyreiaububsmmr6ayf322xa2y43herv5djfdo4is6rzg576sdpfhciynu","2021-03-01T00:00:00.000Z",120,"2021-03-31T23:59:59.999Z",120,"3Degrees Group, Inc","235 Montgomery St Suite 320 CA94104 San Francisco US","DK",,5000000,"570715000000089299","GO",,"WIND","2021-03-01T00:00:00.000Z",120,"2021-03-31T23:59:59.999Z",120
"20211115_3D_PL_transaction_1_attestation_7","GO_Cancellation_ProtocolLabs-Miner ID f02576_2021_Denmark_35.pdf","bafkreia22hex3hcdtu2m3sqhtjjjervydalwpqfqsxq7gmla3apilqvhti","GO_Cancellation_ProtocolLabs-Miner ID f02576_2021_Denmark_35_certificate_4","bafyreientjwcfu4tywgzvgsmanfc2hqr6sdib4dn2csmbj6er3xanvmwqq","2021-04-01T00:00:00.000Z",120,"2021-04-30T23:59:59.999Z",120,"3Degrees Group, Inc","235 Montgomery St Suite 320 CA94104 San Francisco US","DK",,4000000,"570715000000089299","GO",,"WIND","2021-04-01T00:00:00.000Z",120,"2021-04-30T23:59:59.999Z",120
"20211115_3D_PL_transaction_1_attestation_7","GO_Cancellation_ProtocolLabs-Miner ID f02576_2021_Denmark_35.pdf","bafkreia22hex3hcdtu2m3sqhtjjjervydalwpqfqsxq7gmla3apilqvhti","GO_Cancellation_ProtocolLabs-Miner ID f02576_2021_Denmark_35_certificate_5","bafyreidmggtay7nlcodxre3uws6kbiruk6maycxq7mgznbxjalqdjkud6q","2021-05-01T00:00:00.000Z",120,"2021-05-31T23:59:59.999Z",120,"3Degrees Group, Inc","235 Montgomery St Suite 320 CA94104 San Francisco US","DK",,3000000,"570715000000089299","GO",,"WIND","2021-05-01T00:00:00.000Z",120,"2021-05-31T23:59:59.999Z",120
"20211115_3D_PL_transaction_1_attestation_7","GO_Cancellation_ProtocolLabs-Miner ID f02576_2021_Denmark_35.pdf","bafkreia22hex3hcdtu2m3sqhtjjjervydalwpqfqsxq7gmla3apilqvhti","GO_Cancellation_ProtocolLabs-Miner ID f02576_2021_Denmark_35_certificate_6","bafyreifdus3uzqdlpb7hoc46n5o7jhe7qclc3czrtuhqklysivgmqiijfe","2021-06-01T00:00:00.000Z",120,"2021-06-30T23:59:59.999Z",120,"3Degrees Group, Inc","235 Montgomery St Suite 320 CA94104 San Francisco US","DK",,4000000,"570715000000089299","GO",,"WIND","2021-06-01T00:00:00.000Z",120,"2021-06-30T23:59:59.999Z",120
"20211115_3D_PL_transaction_1_attestation_8","GO_Cancellation_ProtocolLabs-Miner ID f02576_2021_Denmark_4.pdf","bafkreidr7w477v7ui454mdxgtjm3kro5qa4nzxlsj3jjf3exrt7mo5cobu","GO_Cancellation_ProtocolLabs-Miner ID f02576_2021_Denmark_4_certificate_1","bafyreifiiw3p7vslt4gpjlqtgrz4ncnx32pyyy5pfb6c6tdbear4v7hiue","2021-01-01T00:00:00.000Z",120,"2021-12-31T23:59:59.999Z",120,"3Degrees Group, Inc","235 Montgomery St Suite 320 CA94104 San Francisco US","DK",,4000000,"570715000000089299","GO",,"WIND","2021-08-01T00:00:00.000Z",120,"2021-08-31T23:59:59.999Z",120
"20211115_3D_PL_transaction_1_attestation_9","GO_Cancellation_ProtocolLabs-Miner ID f0720636_2021_Belgium_263.pdf","bafkreihz5h3vetsokjfj6baiiv5prvhqa6zfwklt6wk4lys5hferslaxki","GO_Cancellation_ProtocolLabs-Miner ID f0720636_2021_Belgium_263_certificate_1","bafyreiglh3c6tqlkaeddgra77awlo3eh3iayc5aya2i3yyevdlvdstldom","2021-07-01T00:00:00.000Z",120,"2021-07-31T23:59:59.999Z",120,"3Degrees Group, Inc","235 Montgomery St Suite 320 CA94104 San Francisco US","BE",,102000000,,"GO",,"WIND","2021-07-01T00:00:00.000Z",120,"2021-07-31T23:59:59.999Z",120
"20211115_3D_PL_transaction_1_attestation_9","GO_Cancellation_ProtocolLabs-Miner ID f0720636_2021_Belgium_263.pdf","bafkreihz5h3vetsokjfj6baiiv5prvhqa6zfwklt6wk4lys5hferslaxki","GO_Cancellation_ProtocolLabs-Miner ID f0720636_2021_Belgium_263_certificate_2","bafyreigabj6czexvmrf6fdst345hhrbkjqfl7mahfkbjuhbpjxphmermkm","2021-04-01T00:00:00.000Z",120,"2021-04-30T23:59:59.999Z",120,"3Degrees Group, Inc","235 Montgomery St Suite 320 CA94104 San Francisco US","BE",,1000000,,"GO",,"WIND","2021-04-01T00:00:00.000Z",120,"2021-04-30T23:59:59.999Z",120
"20211115_3D_PL_transaction_1_attestation_9","GO_Cancellation_ProtocolLabs-Miner ID f0720636_2021_Belgium_263.pdf","bafkreihz5h3vetsokjfj6baiiv5prvhqa6zfwklt6wk4lys5hferslaxki","GO_Cancellation_ProtocolLabs-Miner ID f0720636_2021_Belgium_263_certificate_3","bafyreig44unqq2te3taxcqs3mmdab27cwneb5irzvon3tgsgnikdk5dnuq","2021-05-01T00:00:00.000Z",120,"2021-05-31T23:59:59.999Z",120,"3Degrees Group, Inc","235 Montgomery St Suite 320 CA94104 San Francisco US","BE",,24000000,,"GO",,"WIND","2021-05-01T00:00:00.000Z",120,"2021-05-31T23:59:59.999Z",120
"20211115_3D_PL_transaction_1_attestation_9","GO_Cancellation_ProtocolLabs-Miner ID f0720636_2021_Belgium_263.pdf","bafkreihz5h3vetsokjfj6baiiv5prvhqa6zfwklt6wk4lys5hferslaxki","GO_Cancellation_ProtocolLabs-Miner ID f0720636_2021_Belgium_263_certificate_4","bafyreifnlksmqczcypcwgqqaxbtorq5ievgk3ythwvr6o22ws3mijvqlmi","2021-06-01T00:00:00.000Z",120,"2021-06-30T23:59:59.999Z",120,"3Degrees Group, Inc","235 Montgomery St Suite 320 CA94104 San Francisco US","BE",,46000000,,"GO",,"WIND","2021-06-01T00:00:00.000Z",120,"2021-06-30T23:59:59.999Z",120
"20211115_3D_PL_transaction_1_attestation_9","GO_Cancellation_ProtocolLabs-Miner ID f0720636_2021_Belgium_263.pdf","bafkreihz5h3vetsokjfj6baiiv5prvhqa6zfwklt6wk4lys5hferslaxki","GO_Cancellation_ProtocolLabs-Miner ID f0720636_2021_Belgium_263_certificate_5","bafyreicbkfwxrowtmu55e2mpodk4ztry52wzjqgnuk35e3vhnsubiqq4ai","2021-08-01T00:00:00.000Z",120,"2021-08-31T23:59:59.999Z",120,"3Degrees Group, Inc","235 Montgomery St Suite 320 CA94104 San Francisco US","BE",,90000000,,"GO",,"WIND","2021-08-01T00:00:00.000Z",120,"2021-08-31T23:59:59.999Z",120
"20211115_3D_PL_transaction_1_attestation_10","US_GreenE_15MWh_Jan_to_August_2021.pdf","bafybeignq7j4fvfq6e4xgpdmvf7lbs4atnbf6pxwwtbmmh2j4ea57tdtse","US_GreenE_15MWh_Jan_to_August_2021_certificate_1","bafyreify6l6aa7fhfdwdbpdl4uvcahcqgqww45kwihs22cxs4sv6u5cvvi","2020-09-01T00:00:00.000Z",-540,"2020-09-30T23:59:59.999Z",-540,"3Degrees Group, Inc","235 Montgomery St Suite 320 CA94104 San Francisco US","US","RFC",1000000,"Brook View Dairy 1","REC","GREEN_E_ENERGY","BIOGAS","2020-09-01T00:00:00.000Z",-540,"2020-09-30T23:59:59.999Z",-540
"20211115_3D_PL_transaction_1_attestation_10","US_GreenE_15MWh_Jan_to_August_2021.pdf","bafybeignq7j4fvfq6e4xgpdmvf7lbs4atnbf6pxwwtbmmh2j4ea57tdtse","US_GreenE_15MWh_Jan_to_August_2021_certificate_2","bafyreiermog2vx4c4jwpgwywjwmj2jod3potpl5mrhllawoybf2722bws4","2020-10-01T00:00:00.000Z",-540,"2020-10-31T23:59:59.999Z",-540,"3Degrees Group, Inc","235 Montgomery St Suite 320 CA94104 San Francisco US","US","RFC",1000000,"Milford Raman Solar, LLC","REC","GREEN_E_ENERGY","SOLAR","2020-10-01T00:00:00.000Z",-540,"2020-10-31T23:59:59.999Z",-540
"20211115_3D_PL_transaction_1_attestation_10","US_GreenE_15MWh_Jan_to_August_2021.pdf","bafybeignq7j4fvfq6e4xgpdmvf7lbs4atnbf6pxwwtbmmh2j4ea57tdtse","US_GreenE_15MWh_Jan_to_August_2021_certificate_3","bafyreieacwrmalebpos2njmkihu6gntcexqplh6qk66ptjjve5rydtkrsm","2020-11-01T00:00:00.000Z",-600,"2020-11-30T23:59:59.999Z",-600,"3Degrees Group, Inc","235 Montgomery St Suite 320 CA94104 San Francisco US","US","RFC",1000000,"Rosewater Wind Project","REC","GREEN_E_ENERGY","WIND","2020-11-01T00:00:00.000Z",-600,"2020-11-30T23:59:59.999Z",-600
"20211115_3D_PL_transaction_1_attestation_10","US_GreenE_15MWh_Jan_to_August_2021.pdf","bafybeignq7j4fvfq6e4xgpdmvf7lbs4atnbf6pxwwtbmmh2j4ea57tdtse","US_GreenE_15MWh_Jan_to_August_2021_certificate_4","bafyreibku5k4csw56qrohsxojaffxly3dwqhxx34qe4rbhidwbcfnsmztq","2020-12-01T00:00:00.000Z",-600,"2020-12-31T23:59:59.999Z",-600,"3Degrees Group, Inc","235 Montgomery St Suite 320 CA94104 San Francisco US","US","RFC",1000000,"Rosewater Wind Project","REC","GREEN_E_ENERGY","WIND","2020-12-01T00:00:00.000Z",-600,"2020-12-31T23:59:59.999Z",-600
"20211115_3D_PL_transaction_1_attestation_10","US_GreenE_15MWh_Jan_to_August_2021.pdf","bafybeignq7j4fvfq6e4xgpdmvf7lbs4atnbf6pxwwtbmmh2j4ea57tdtse","US_GreenE_15MWh_Jan_to_August_2021_certificate_5","bafyreifvdys72vmx6k6ddslas4sh2tf5iibqissrkbcixpayyljuva732y","2021-01-01T00:00:00.000Z",-600,"2021-01-31T23:59:59.999Z",-600,"3Degrees Group, Inc","235 Montgomery St Suite 320 CA94104 San Francisco US","US","RFC",2000000,"Big Turtle Wind Farm Two","REC","GREEN_E_ENERGY","WIND","2021-01-01T00:00:00.000Z",-600,"2021-01-31T23:59:59.999Z",-600
"20211115_3D_PL_transaction_1_attestation_10","US_GreenE_15MWh_Jan_to_August_2021.pdf","bafybeignq7j4fvfq6e4xgpdmvf7lbs4atnbf6pxwwtbmmh2j4ea57tdtse","US_GreenE_15MWh_Jan_to_August_2021_certificate_6","bafyreihncgc2pwubq42pyor6douwqj47i3wauchpbn5vcaun734zrn3xce","2021-02-01T00:00:00.000Z",-600,"2021-02-28T23:59:59.999Z",-600,"3Degrees Group, Inc","235 Montgomery St Suite 320 CA94104 San Francisco US","US","RFC",1000000,"Big Turtle Wind Farm Two","REC","GREEN_E_ENERGY","WIND","2021-02-01T00:00:00.000Z",-600,"2021-02-28T23:59:59.999Z",-600
"20211115_3D_PL_transaction_1_attestation_10","US_GreenE_15MWh_Jan_to_August_2021.pdf","bafybeignq7j4fvfq6e4xgpdmvf7lbs4atnbf6pxwwtbmmh2j4ea57tdtse","US_GreenE_15MWh_Jan_to_August_2021_certificate_7","bafyreigazchbutq4owverbsjgsjtf2u55vjztsfuljcy6jfevdrf7addya","2021-03-01T00:00:00.000Z",-540,"2021-03-31T23:59:59.999Z",-540,"3Degrees Group, Inc","235 Montgomery St Suite 320 CA94104 San Francisco US","US","RFC",1000000,"1AU, LLC","REC","GREEN_E_ENERGY","SOLAR","2021-03-01T00:00:00.000Z",-540,"2021-03-31T23:59:59.999Z",-540
"20211115_3D_PL_transaction_1_attestation_10","US_GreenE_15MWh_Jan_to_August_2021.pdf","bafybeignq7j4fvfq6e4xgpdmvf7lbs4atnbf6pxwwtbmmh2j4ea57tdtse","US_GreenE_15MWh_Jan_to_August_2021_certificate_8","bafyreictgl45erzmluoxioox77bf2dueiyjx66qrlvouemgfu5sd5hdg4q","2021-04-01T00:00:00.000Z",-540,"2021-04-30T23:59:59.999Z",-540,"3Degrees Group, Inc","235 Montgomery St Suite 320 CA94104 San Francisco US","US","RFC",2000000,"Jordan Creek Wind Farm","REC","GREEN_E_ENERGY","WIND","2021-04-01T00:00:00.000Z",-540,"2021-04-30T23:59:59.999Z",-540
"20211115_3D_PL_transaction_1_attestation_10","US_GreenE_15MWh_Jan_to_August_2021.pdf","bafybeignq7j4fvfq6e4xgpdmvf7lbs4atnbf6pxwwtbmmh2j4ea57tdtse","US_GreenE_15MWh_Jan_to_August_2021_certificate_9","bafyreifkyfw5f32naol2bpzhmgehm6pz2n5e3dlrqjvysasevminoeqqze","2021-05-01T00:00:00.000Z",-540,"2021-05-31T23:59:59.999Z",-540,"3Degrees Group, Inc","235 Montgomery St Suite 320 CA94104 San Francisco US","US","RFC",1000000,"Big Turtle Wind Farm Two","REC","GREEN_E_ENERGY","WIND","2021-05-01T00:00:00.000Z",-540,"2021-05-31T23:59:59.999Z",-540
"20211115_3D_PL_transaction_1_attestation_10","US_GreenE_15MWh_Jan_to_August_2021.pdf","bafybeignq7j4fvfq6e4xgpdmvf7lbs4atnbf6pxwwtbmmh2j4ea57tdtse","US_GreenE_15MWh_Jan_to_August_2021_certificate_10","bafyreifetya7cn2gedjoplabhpouxhquvybbakztgdbbgxobrvv7sbab5e","2021-06-01T00:00:00.000Z",-540,"2021-06-30T23:59:59.999Z",-540,"3Degrees Group, Inc","235 Montgomery St Suite 320 CA94104 San Francisco US","US","RFC",2000000,"Big Turtle Wind Farm Two","REC","GREEN_E_ENERGY","WIND","2021-06-01T00:00:00.000Z",-540,"2021-06-30T23:59:59.999Z",-540
"20211115_3D_PL_transaction_1_attestation_10","US_GreenE_15MWh_Jan_to_August_2021.pdf","bafybeignq7j4fvfq6e4xgpdmvf7lbs4atnbf6pxwwtbmmh2j4ea57tdtse","US_GreenE_15MWh_Jan_to_August_2021_certificate_11","bafyreiebauruempyuntouciflqyjedmddetrpdnka4pyjc3r2rw43uxcly","2021-07-01T00:00:00.000Z",-540,"2021-07-31T23:59:59.999Z",-540,"3Degrees Group, Inc","235 Montgomery St Suite 320 CA94104 San Francisco US","US","RFC",1000000,"Rosewater Wind Project","REC","GREEN_E_ENERGY","WIND","2021-07-01T00:00:00.000Z",-540,"2021-07-31T23:59:59.999Z",-540
"20211115_3D_PL_transaction_1_attestation_10","US_GreenE_15MWh_Jan_to_August_2021.pdf","bafybeignq7j4fvfq6e4xgpdmvf7lbs4atnbf6pxwwtbmmh2j4ea57tdtse","US_GreenE_15MWh_Jan_to_August_2021_certificate_12","bafyreih7pp6lhs3v6n5z3fskhjby4npe3scolbeqogcf4uy2oyiiwtapwq","2021-08-01T00:00:00.000Z",-540,"2021-08-31T23:59:59.999Z",-540,"3Degrees Group, Inc","235 Montgomery St Suite 320 CA94104 San Francisco US","US","RFC",1000000,"Big Turtle Wind Farm Two","REC","GREEN_E_ENERGY","WIND","2021-08-01T00:00:00.000Z",-540,"2021-08-31T23:59:59.999Z",-540
"20211115_3D_PL_transaction_1_attestation_11","US_GreenE_22MWh_July2021_to_Aug2021.pdf","bafkreib4dtanmi4z23xparslzellnh5uo56cad4hpcl347w2ncqlgs56bq","US_GreenE_22MWh_July2021_to_Aug2021_certificate_1","bafyreih62gewyhpqlkrrmbf6up353ln72ph6qbajcxom42zepudninocji","2021-07-01T00:00:00.000Z",-540,"2021-07-31T23:59:59.999Z",-540,"3Degrees Group, Inc","235 Montgomery St Suite 320 CA94104 San Francisco US","US","NPCC",11000000,"Caribou Solar LLC","REC","GREEN_E_ENERGY","SOLAR","2021-07-01T00:00:00.000Z",-540,"2021-07-31T23:59:59.999Z",-540
"20211115_3D_PL_transaction_1_attestation_11","US_GreenE_22MWh_July2021_to_Aug2021.pdf","bafkreib4dtanmi4z23xparslzellnh5uo56cad4hpcl347w2ncqlgs56bq","US_GreenE_22MWh_July2021_to_Aug2021_certificate_2","bafyreihh5inyv3s4dfe6vkyebvzxe363tazq4ouqrpdjvu2uuzzbnsbn24","2021-08-01T00:00:00.000Z",-540,"2021-08-31T23:59:59.999Z",-540,"3Degrees Group, Inc","235 Montgomery St Suite 320 CA94104 San Francisco US","US","NPCC",11000000,"Caribou Solar LLC","REC","GREEN_E_ENERGY","SOLAR","2021-08-01T00:00:00.000Z",-540,"2021-08-31T23:59:59.999Z",-540
"20211115_3D_PL_transaction_1_attestation_12","US_GreenE_28MWh_Nov2020_to_June2021.pdf","bafybeiatsu7mvz32ftgkhsd7ywisg3hntqfss5gomzhpgdvz4hhafxee4u","US_GreenE_28MWh_Nov2020_to_June2021_certificate_1","bafyreigwfz7vlhdx3eyvymcakaknhqnptzp5ul5onyjbk6q4g253w3yree","2020-11-01T00:00:00.000Z",-600,"2020-11-30T23:59:59.999Z",-600,"3Degrees Group, Inc","235 Montgomery St Suite 320 CA94104 San Francisco US","US","NPCC",6000000,"Cohocton Wind Project (Candigu)","REC","GREEN_E_ENERGY","WIND","2020-11-01T00:00:00.000Z",-600,"2020-11-30T23:59:59.999Z",-600
"20211115_3D_PL_transaction_1_attestation_12","US_GreenE_28MWh_Nov2020_to_June2021.pdf","bafybeiatsu7mvz32ftgkhsd7ywisg3hntqfss5gomzhpgdvz4hhafxee4u","US_GreenE_28MWh_Nov2020_to_June2021_certificate_2","bafyreigrfubmbhe4rgmca2cqwwqgvzel7czrm4lcuuwvxnjxdzcsnz7tqu","2020-11-01T00:00:00.000Z",-600,"2020-11-30T23:59:59.999Z",-600,"3Degrees Group, Inc","235 Montgomery St Suite 320 CA94104 San Francisco US","US","NPCC",1000000,"STEEL - STEEL___WIND","REC","GREEN_E_ENERGY","WIND","2020-11-01T00:00:00.000Z",-600,"2020-11-30T23:59:59.999Z",-600
"20211115_3D_PL_transaction_1_attestation_12","US_GreenE_28MWh_Nov2020_to_June2021.pdf","bafybeiatsu7mvz32ftgkhsd7ywisg3hntqfss5gomzhpgdvz4hhafxee4u","US_GreenE_28MWh_Nov2020_to_June2021_certificate_3","bafyreie4mw5sk426y2iem654dmfykq3slrt66rvth2kj45ny43anjdegrm","2021-04-01T00:00:00.000Z",-540,"2021-04-30T23:59:59.999Z",-540,"3Degrees Group, Inc","235 Montgomery St Suite 320 CA94104 San Francisco US","US","NPCC",2000000,"Caribou Solar LLC","REC","GREEN_E_ENERGY","SOLAR","2021-04-01T00:00:00.000Z",-540,"2021-04-30T23:59:59.999Z",-540
"20211115_3D_PL_transaction_1_attestation_12","US_GreenE_28MWh_Nov2020_to_June2021.pdf","bafybeiatsu7mvz32ftgkhsd7ywisg3hntqfss5gomzhpgdvz4hhafxee4u","US_GreenE_28MWh_Nov2020_to_June2021_certificate_4","bafyreicceqdm4npsx3qhixhc3peifpzsvea6lhmriagdslkfvfixu3jlya","2021-05-01T00:00:00.000Z",-540,"2021-05-31T23:59:59.999Z",-540,"3Degrees Group, Inc","235 Montgomery St Suite 320 CA94104 San Francisco US","US","NPCC",9000000,"Caribou Solar LLC","REC","GREEN_E_ENERGY","SOLAR","2021-05-01T00:00:00.000Z",-540,"2021-05-31T23:59:59.999Z",-540
"20211115_3D_PL_transaction_1_attestation_12","US_GreenE_28MWh_Nov2020_to_June2021.pdf","bafybeiatsu7mvz32ftgkhsd7ywisg3hntqfss5gomzhpgdvz4hhafxee4u","US_GreenE_28MWh_Nov2020_to_June2021_certificate_5","bafyreiagreaupcu7rytr7ulqdklvucnmoxd2ka4in5gqmg2nplpoa2vmpa","2021-06-01T00:00:00.000Z",-540,"2021-06-30T23:59:59.999Z",-540,"3Degrees Group, Inc","235 Montgomery St Suite 320 CA94104 San Francisco US","US","NPCC",10000000,"Caribou Solar LLC","REC","GREEN_E_ENERGY","SOLAR","2021-06-01T00:00:00.000Z",-540,"2021-06-30T23:59:59.999Z",-540
"20211115_3D_PL_transaction_1_attestation_13","US_GreenE_563MWh_Jan_to_August_2021.pdf","bafybeihhyushebp7oscpimhsef3655pzch66t6wnqxixgj6vz7qtaupkzy","US_GreenE_563MWh_Jan_to_August_2021_certificate_1","bafyreiepgm7ofklxphpjnmupx5xi5rsplr7cc6gpattkhiobwzupbwa2tq","2021-01-01T00:00:00.000Z",-600,"2021-01-31T23:59:59.999Z",-600,"3Degrees Group, Inc","235 Montgomery St Suite 320 CA94104 San Francisco US","US","WECC",22000000,"Meridian Vineyards - Meridian Red Tank RT PV1","REC","GREEN_E_ENERGY","SOLAR","2021-01-01T00:00:00.000Z",-600,"2021-01-31T23:59:59.999Z",-600
"20211115_3D_PL_transaction_1_attestation_13","US_GreenE_563MWh_Jan_to_August_2021.pdf","bafybeihhyushebp7oscpimhsef3655pzch66t6wnqxixgj6vz7qtaupkzy","US_GreenE_563MWh_Jan_to_August_2021_certificate_2","bafyreieylfjxbhj3n5w77eu3yz4gmh4ihmguawc2iwtxqpr5ttmimketsa","2021-01-01T00:00:00.000Z",-600,"2021-01-31T23:59:59.999Z",-600,"3Degrees Group, Inc","235 Montgomery St Suite 320 CA94104 San Francisco US","US","WECC",32000000,"Milpitas High School Solar","REC","GREEN_E_ENERGY","SOLAR","2021-01-01T00:00:00.000Z",-600,"2021-01-31T23:59:59.999Z",-600
"20211115_3D_PL_transaction_1_attestation_13","US_GreenE_563MWh_Jan_to_August_2021.pdf","bafybeihhyushebp7oscpimhsef3655pzch66t6wnqxixgj6vz7qtaupkzy","US_GreenE_563MWh_Jan_to_August_2021_certificate_3","bafyreiarc6c47o67ci5cnxzui5tlhxojljvfvsanjttbw2ehszunmgvpey","2021-01-01T00:00:00.000Z",-600,"2021-01-31T23:59:59.999Z",-600,"3Degrees Group, Inc","235 Montgomery St Suite 320 CA94104 San Francisco US","US","WECC",11000000,"William Burnett Elementary","REC","GREEN_E_ENERGY","SOLAR","2021-01-01T00:00:00.000Z",-600,"2021-01-31T23:59:59.999Z",-600
"20211115_3D_PL_transaction_1_attestation_13","US_GreenE_563MWh_Jan_to_August_2021.pdf","bafybeihhyushebp7oscpimhsef3655pzch66t6wnqxixgj6vz7qtaupkzy","US_GreenE_563MWh_Jan_to_August_2021_certificate_4","bafyreihualuyyxydl5wpiirgqn45h26gsta5nuskxxjc7yng77ikvjgese","2021-02-01T00:00:00.000Z",-600,"2021-02-28T23:59:59.999Z",-600,"3Degrees Group, Inc","235 Montgomery St Suite 320 CA94104 San Francisco US","US","WECC",25000000,"GLT Laguna Solar - San Luis Obispo - Laguna Middle","REC","GREEN_E_ENERGY","SOLAR","2021-02-01T00:00:00.000Z",-600,"2021-02-28T23:59:59.999Z",-600
"20211115_3D_PL_transaction_1_attestation_13","US_GreenE_563MWh_Jan_to_August_2021.pdf","bafybeihhyushebp7oscpimhsef3655pzch66t6wnqxixgj6vz7qtaupkzy","US_GreenE_563MWh_Jan_to_August_2021_certificate_5","bafyreia7a4hdfepsf23m3pqeetijawxb4cif2drcamc63kcrvtgyns44su","2021-02-01T00:00:00.000Z",-600,"2021-02-28T23:59:59.999Z",-600,"3Degrees Group, Inc","235 Montgomery St Suite 320 CA94104 San Francisco US","US","WECC",20000000,"GLT Los Osos Solar - San Luis Obispo - Los Osos Middle","REC","GREEN_E_ENERGY","SOLAR","2021-02-01T00:00:00.000Z",-600,"2021-02-28T23:59:59.999Z",-600
"20211115_3D_PL_transaction_1_attestation_13","US_GreenE_563MWh_Jan_to_August_2021.pdf","bafybeihhyushebp7oscpimhsef3655pzch66t6wnqxixgj6vz7qtaupkzy","US_GreenE_563MWh_Jan_to_August_2021_certificate_6","bafyreig3vtntbcsoshuknbhy3hwp2j2z3dv5ddqicroith3yhgswyezqny","2021-02-01T00:00:00.000Z",-600,"2021-02-28T23:59:59.999Z",-600,"3Degrees Group, Inc","235 Montgomery St Suite 320 CA94104 San Francisco US","US","WECC",18000000,"GLT Los Rob 160 - DDRC Marengo","REC","GREEN_E_ENERGY","SOLAR","2021-02-01T00:00:00.000Z",-600,"2021-02-28T23:59:59.999Z",-600
"20211115_3D_PL_transaction_1_attestation_13","US_GreenE_563MWh_Jan_to_August_2021.pdf","bafybeihhyushebp7oscpimhsef3655pzch66t6wnqxixgj6vz7qtaupkzy","US_GreenE_563MWh_Jan_to_August_2021_certificate_7","bafyreif2p567n4vfa7cl2gako2zeblzmapzice47q44xkmq7lf2dwkuwki","2021-02-01T00:00:00.000Z",-600,"2021-02-28T23:59:59.999Z",-600,"3Degrees Group, Inc","235 Montgomery St Suite 320 CA94104 San Francisco US","US","WECC",1000000,"Red Bluff Joint Union High School - Red Bluff 2","REC","GREEN_E_ENERGY","SOLAR","2021-02-01T00:00:00.000Z",-600,"2021-02-28T23:59:59.999Z",-600
"20211115_3D_PL_transaction_1_attestation_13","US_GreenE_563MWh_Jan_to_August_2021.pdf","bafybeihhyushebp7oscpimhsef3655pzch66t6wnqxixgj6vz7qtaupkzy","US_GreenE_563MWh_Jan_to_August_2021_certificate_8","bafyreicmtkrg2aovgujxrxfx4xntlivggg3gdspg72qknarqw6o7biqhtm","2021-03-01T00:00:00.000Z",-540,"2021-03-31T23:59:59.999Z",-540,"3Degrees Group, Inc","235 Montgomery St Suite 320 CA94104 San Francisco US","US","WECC",23000000,"GLT Los Rob 160 - DDRC Marengo","REC","GREEN_E_ENERGY","SOLAR","2021-03-01T00:00:00.000Z",-540,"2021-03-31T23:59:59.999Z",-540
"20211115_3D_PL_transaction_1_attestation_13","US_GreenE_563MWh_Jan_to_August_2021.pdf","bafybeihhyushebp7oscpimhsef3655pzch66t6wnqxixgj6vz7qtaupkzy","US_GreenE_563MWh_Jan_to_August_2021_certificate_9","bafyreigkseowc5gtlxfbqfpumijksfdzcndatl3tfmybckygugwvws45aq","2021-03-01T00:00:00.000Z",-540,"2021-03-31T23:59:59.999Z",-540,"3Degrees Group, Inc","235 Montgomery St Suite 320 CA94104 San Francisco US","US","WECC",1000000,"Red Bluff Joint Union High School - Red Bluff 1","REC","GREEN_E_ENERGY","SOLAR","2021-03-01T00:00:00.000Z",-540,"2021-03-31T23:59:59.999Z",-540
"20211115_3D_PL_transaction_1_attestation_13","US_GreenE_563MWh_Jan_to_August_2021.pdf","bafybeihhyushebp7oscpimhsef3655pzch66t6wnqxixgj6vz7qtaupkzy","US_GreenE_563MWh_Jan_to_August_2021_certificate_10","bafyreigypvwibrqqrjziwuvkckc7l3tkp2iwgs76tagrkolxwvk2ufbpbe","2021-04-01T00:00:00.000Z",-540,"2021-04-30T23:59:59.999Z",-540,"3Degrees Group, Inc","235 Montgomery St Suite 320 CA94104 San Francisco US","US","WECC",14000000,"GLT The Pike 150 - DDRC Long Beach","REC","GREEN_E_ENERGY","SOLAR","2021-04-01T00:00:00.000Z",-540,"2021-04-30T23:59:59.999Z",-540
"20211115_3D_PL_transaction_1_attestation_13","US_GreenE_563MWh_Jan_to_August_2021.pdf","bafybeihhyushebp7oscpimhsef3655pzch66t6wnqxixgj6vz7qtaupkzy","US_GreenE_563MWh_Jan_to_August_2021_certificate_11","bafyreidbhcntum6rfmm5rnb5uswqwx3634zujuhpn7evxlggnqlloqthia","2021-05-01T00:00:00.000Z",-540,"2021-05-31T23:59:59.999Z",-540,"3Degrees Group, Inc","235 Montgomery St Suite 320 CA94104 San Francisco US","US","WECC",9000000,"GLT Los Rob 60 - DDRC Marengo","REC","GREEN_E_ENERGY","SOLAR","2021-05-01T00:00:00.000Z",-540,"2021-05-31T23:59:59.999Z",-540
"20211115_3D_PL_transaction_1_attestation_13","US_GreenE_563MWh_Jan_to_August_2021.pdf","bafybeihhyushebp7oscpimhsef3655pzch66t6wnqxixgj6vz7qtaupkzy","US_GreenE_563MWh_Jan_to_August_2021_certificate_12","bafyreidecxgmuvouv4ygvnfaesu5jziqbj7xno7xqorjb5m4ps2kj4atdm","2021-05-01T00:00:00.000Z",-540,"2021-05-31T23:59:59.999Z",-540,"3Degrees Group, Inc","235 Montgomery St Suite 320 CA94104 San Francisco US","US","WECC",15000000,"GLT The Pike 150 - DDRC Long Beach","REC","GREEN_E_ENERGY","SOLAR","2021-05-01T00:00:00.000Z",-540,"2021-05-31T23:59:59.999Z",-540
"20211115_3D_PL_transaction_1_attestation_13","US_GreenE_563MWh_Jan_to_August_2021.pdf","bafybeihhyushebp7oscpimhsef3655pzch66t6wnqxixgj6vz7qtaupkzy","US_GreenE_563MWh_Jan_to_August_2021_certificate_13","bafyreia2hklylela4nw4x2n7htar7qho7y64ntzqymff72p6c65x6jwgaa","2021-06-01T00:00:00.000Z",-540,"2021-06-30T23:59:59.999Z",-540,"3Degrees Group, Inc","235 Montgomery St Suite 320 CA94104 San Francisco US","US","WECC",13000000,"GLT Los Osos Solar - San Luis Obispo - Los Osos Middle","REC","GREEN_E_ENERGY","SOLAR","2021-06-01T00:00:00.000Z",-540,"2021-06-30T23:59:59.999Z",-540
"20211115_3D_PL_transaction_1_attestation_13","US_GreenE_563MWh_Jan_to_August_2021.pdf","bafybeihhyushebp7oscpimhsef3655pzch66t6wnqxixgj6vz7qtaupkzy","US_GreenE_563MWh_Jan_to_August_2021_certificate_14","bafyreiemks3af7m2a3akp3omuxv3r7qb62smadn43vh55kn42t3rezhkvi","2021-06-01T00:00:00.000Z",-540,"2021-06-30T23:59:59.999Z",-540,"3Degrees Group, Inc","235 Montgomery St Suite 320 CA94104 San Francisco US","US","WECC",24000000,"GLT Los Rob 160 - DDRC Marengo","REC","GREEN_E_ENERGY","SOLAR","2021-06-01T00:00:00.000Z",-540,"2021-06-30T23:59:59.999Z",-540
"20211115_3D_PL_transaction_1_attestation_13","US_GreenE_563MWh_Jan_to_August_2021.pdf","bafybeihhyushebp7oscpimhsef3655pzch66t6wnqxixgj6vz7qtaupkzy","US_GreenE_563MWh_Jan_to_August_2021_certificate_15","bafyreifq37gvetqjoamrfhumv2spbfxwjz5rid3dvlr4wwxsdkom2labiq","2021-06-01T00:00:00.000Z",-540,"2021-06-30T23:59:59.999Z",-540,"3Degrees Group, Inc","235 Montgomery St Suite 320 CA94104 San Francisco US","US","WECC",9000000,"GLT Los Rob 60 - DDRC Marengo","REC","GREEN_E_ENERGY","SOLAR","2021-06-01T00:00:00.000Z",-540,"2021-06-30T23:59:59.999Z",-540
"20211115_3D_PL_transaction_1_attestation_13","US_GreenE_563MWh_Jan_to_August_2021.pdf","bafybeihhyushebp7oscpimhsef3655pzch66t6wnqxixgj6vz7qtaupkzy","US_GreenE_563MWh_Jan_to_August_2021_certificate_16","bafyreid4iyhkpz4xpvnthulel7fcyuq6ijjxxbiwcr4pfp3atwndp3kxpq","2021-06-01T00:00:00.000Z",-540,"2021-06-30T23:59:59.999Z",-540,"3Degrees Group, Inc","235 Montgomery St Suite 320 CA94104 San Francisco US","US","WECC",19000000,"GLT The Pike 115 - DDRC Long Beach","REC","GREEN_E_ENERGY","SOLAR","2021-06-01T00:00:00.000Z",-540,"2021-06-30T23:59:59.999Z",-540
"20211115_3D_PL_transaction_1_attestation_13","US_GreenE_563MWh_Jan_to_August_2021.pdf","bafybeihhyushebp7oscpimhsef3655pzch66t6wnqxixgj6vz7qtaupkzy","US_GreenE_563MWh_Jan_to_August_2021_certificate_17","bafyreihwljvo2vue34qhcpmvahr4gqyxnd7zfd7s4eq26evlsfhbe6sosu","2021-06-01T00:00:00.000Z",-540,"2021-06-30T23:59:59.999Z",-540,"3Degrees Group, Inc","235 Montgomery St Suite 320 CA94104 San Francisco US","US","WECC",15000000,"GLT The Pike 150 - DDRC Long Beach","REC","GREEN_E_ENERGY","SOLAR","2021-06-01T00:00:00.000Z",-540,"2021-06-30T23:59:59.999Z",-540
"20211115_3D_PL_transaction_1_attestation_13","US_GreenE_563MWh_Jan_to_August_2021.pdf","bafybeihhyushebp7oscpimhsef3655pzch66t6wnqxixgj6vz7qtaupkzy","US_GreenE_563MWh_Jan_to_August_2021_certificate_18","bafyreigwwq2ckdnvrjbmgnwso7rzv6rzbikrtad5fiiijdyq6daq7xmb3a","2021-07-01T00:00:00.000Z",-540,"2021-07-31T23:59:59.999Z",-540,"3Degrees Group, Inc","235 Montgomery St Suite 320 CA94104 San Francisco US","US","WECC",28000000,"GLT Laguna Solar - San Luis Obispo - Laguna Middle","REC","GREEN_E_ENERGY","SOLAR","2021-07-01T00:00:00.000Z",-540,"2021-07-31T23:59:59.999Z",-540
"20211115_3D_PL_transaction_1_attestation_13","US_GreenE_563MWh_Jan_to_August_2021.pdf","bafybeihhyushebp7oscpimhsef3655pzch66t6wnqxixgj6vz7qtaupkzy","US_GreenE_563MWh_Jan_to_August_2021_certificate_19","bafyreiccgvwmlxojwwpu7g6ryiqdln3uvp4pdaarwhab5fddnugb2qxbam","2021-07-01T00:00:00.000Z",-540,"2021-07-31T23:59:59.999Z",-540,"3Degrees Group, Inc","235 Montgomery St Suite 320 CA94104 San Francisco US","US","WECC",35000000,"GLT Los Osos Solar - San Luis Obispo - Los Osos Middle","REC","GREEN_E_ENERGY","SOLAR","2021-07-01T00:00:00.000Z",-540,"2021-07-31T23:59:59.999Z",-540
"20211115_3D_PL_transaction_1_attestation_13","US_GreenE_563MWh_Jan_to_August_2021.pdf","bafybeihhyushebp7oscpimhsef3655pzch66t6wnqxixgj6vz7qtaupkzy","US_GreenE_563MWh_Jan_to_August_2021_certificate_20","bafyreierp5mbmo7beftgqjnegogdie4rvsayr6rh7xmylwwrt3qug4k4eu","2021-07-01T00:00:00.000Z",-540,"2021-07-31T23:59:59.999Z",-540,"3Degrees Group, Inc","235 Montgomery St Suite 320 CA94104 San Francisco US","US","WECC",23000000,"GLT Los Rob 160 - DDRC Marengo","REC","GREEN_E_ENERGY","SOLAR","2021-07-01T00:00:00.000Z",-540,"2021-07-31T23:59:59.999Z",-540
"20211115_3D_PL_transaction_1_attestation_13","US_GreenE_563MWh_Jan_to_August_2021.pdf","bafybeihhyushebp7oscpimhsef3655pzch66t6wnqxixgj6vz7qtaupkzy","US_GreenE_563MWh_Jan_to_August_2021_certificate_21","bafyreicpcuhmu4emouqe7gcv6xxo6twyesniyzzhibsfvssj5pbbs4fjgq","2021-07-01T00:00:00.000Z",-540,"2021-07-31T23:59:59.999Z",-540,"3Degrees Group, Inc","235 Montgomery St Suite 320 CA94104 San Francisco US","US","WECC",9000000,"GLT Los Rob 60 - DDRC Marengo","REC","GREEN_E_ENERGY","SOLAR","2021-07-01T00:00:00.000Z",-540,"2021-07-31T23:59:59.999Z",-540
"20211115_3D_PL_transaction_1_attestation_13","US_GreenE_563MWh_Jan_to_August_2021.pdf","bafybeihhyushebp7oscpimhsef3655pzch66t6wnqxixgj6vz7qtaupkzy","US_GreenE_563MWh_Jan_to_August_2021_certificate_22","bafyreibn3rlfxom7jyvcmpek3kkniszsdwwv2ur5oglyxclu445ua5nybi","2021-07-01T00:00:00.000Z",-540,"2021-07-31T23:59:59.999Z",-540,"3Degrees Group, Inc","235 Montgomery St Suite 320 CA94104 San Francisco US","US","WECC",20000000,"GLT The Pike 115 - DDRC Long Beach","REC","GREEN_E_ENERGY","SOLAR","2021-07-01T00:00:00.000Z",-540,"2021-07-31T23:59:59.999Z",-540
"20211115_3D_PL_transaction_1_attestation_13","US_GreenE_563MWh_Jan_to_August_2021.pdf","bafybeihhyushebp7oscpimhsef3655pzch66t6wnqxixgj6vz7qtaupkzy","US_GreenE_563MWh_Jan_to_August_2021_certificate_23","bafyreienlu6m5hj4n6skbx2w2kwimbdvscerzhujk3emrwnk7vqvrcnfdu","2021-07-01T00:00:00.000Z",-540,"2021-07-31T23:59:59.999Z",-540,"3Degrees Group, Inc","235 Montgomery St Suite 320 CA94104 San Francisco US","US","WECC",15000000,"GLT The Pike 150 - DDRC Long Beach","REC","GREEN_E_ENERGY","SOLAR","2021-07-01T00:00:00.000Z",-540,"2021-07-31T23:59:59.999Z",-540
"20211115_3D_PL_transaction_1_attestation_13","US_GreenE_563MWh_Jan_to_August_2021.pdf","bafybeihhyushebp7oscpimhsef3655pzch66t6wnqxixgj6vz7qtaupkzy","US_GreenE_563MWh_Jan_to_August_2021_certificate_24","bafyreiheebp3yapjrfz7wvcqfkexe4vu6wmheiefropztzobpwyl5h7csq","2021-08-01T00:00:00.000Z",-540,"2021-08-31T23:59:59.999Z",-540,"3Degrees Group, Inc","235 Montgomery St Suite 320 CA94104 San Francisco US","US","WECC",162000000,"GLT Chuckawalla Solar - State of California - Chuckawalla Prison 2","REC","GREEN_E_ENERGY","SOLAR","2021-08-01T00:00:00.000Z",-540,"2021-08-31T23:59:59.999Z",-540
"20211115_3D_PL_transaction_1_attestation_14","US_GreenE_640MWh_Oct2020_to_August2021.pdf","bafkreigkh3g2heecbfobxbzyqvwp5gxlefqdrojumbu5clnl3rjujsokxi","US_GreenE_640MWh_Oct2020_to_August2021_certificate_1","bafyreia6ux336747vp5qifo34ee7ryubsc7bhirybattvzesbnp7lofjfi","2021-03-01T00:00:00.000Z",-540,"2021-03-31T23:59:59.999Z",-540,"3Degrees Group, Inc","235 Montgomery St Suite 320 CA94104 San Francisco US","US","RFC",1000000,"1AU, LLC (IN) ","REC","GREEN_E_ENERGY","WIND","2021-03-01T00:00:00.000Z",-540,"2021-03-31T23:59:59.999Z",-540
"20211115_3D_PL_transaction_1_attestation_14","US_GreenE_640MWh_Oct2020_to_August2021.pdf","bafkreigkh3g2heecbfobxbzyqvwp5gxlefqdrojumbu5clnl3rjujsokxi","US_GreenE_640MWh_Oct2020_to_August2021_certificate_2","bafyreigvmcto7szfjk2sc76dbiwzejvqbjjfn6mkei4b4xeya2t37s6ct4","2021-01-01T00:00:00.000Z",-600,"2021-01-31T23:59:59.999Z",-600,"3Degrees Group, Inc","235 Montgomery St Suite 320 CA94104 San Francisco US","US","RFC",2000000,"Big Turtle Wind Farm Two","REC","GREEN_E_ENERGY","WIND","2021-01-01T00:00:00.000Z",-600,"2021-01-31T23:59:59.999Z",-600
"20211115_3D_PL_transaction_1_attestation_14","US_GreenE_640MWh_Oct2020_to_August2021.pdf","bafkreigkh3g2heecbfobxbzyqvwp5gxlefqdrojumbu5clnl3rjujsokxi","US_GreenE_640MWh_Oct2020_to_August2021_certificate_3","bafyreidznipyfytxh26awd7fgfqgjisc4fublk3fti5wdj4rx37wi5e7oe","2021-02-01T00:00:00.000Z",-600,"2021-02-28T23:59:59.999Z",-600,"3Degrees Group, Inc","235 Montgomery St Suite 320 CA94104 San Francisco US","US","RFC",1000000,"Big Turtle Wind Farm Two","REC","GREEN_E_ENERGY","WIND","2021-02-01T00:00:00.000Z",-600,"2021-02-28T23:59:59.999Z",-600
"20211115_3D_PL_transaction_1_attestation_14","US_GreenE_640MWh_Oct2020_to_August2021.pdf","bafkreigkh3g2heecbfobxbzyqvwp5gxlefqdrojumbu5clnl3rjujsokxi","US_GreenE_640MWh_Oct2020_to_August2021_certificate_4","bafyreiczs7bydm3rndspg3o4fojhxdpdmvitpezn4kks5qneofy77z42si","2021-05-01T00:00:00.000Z",-540,"2021-05-31T23:59:59.999Z",-540,"3Degrees Group, Inc","235 Montgomery St Suite 320 CA94104 San Francisco US","US","RFC",1000000,"Big Turtle Wind Farm Two","REC","GREEN_E_ENERGY","WIND","2021-05-01T00:00:00.000Z",-540,"2021-05-31T23:59:59.999Z",-540
"20211115_3D_PL_transaction_1_attestation_14","US_GreenE_640MWh_Oct2020_to_August2021.pdf","bafkreigkh3g2heecbfobxbzyqvwp5gxlefqdrojumbu5clnl3rjujsokxi","US_GreenE_640MWh_Oct2020_to_August2021_certificate_5","bafyreigu6isazqxkojscncfftermnxtt6tnpk3er7uoqmtvjrx7g2g3mey","2021-06-01T00:00:00.000Z",-540,"2021-06-30T23:59:59.999Z",-540,"3Degrees Group, Inc","235 Montgomery St Suite 320 CA94104 San Francisco US","US","RFC",2000000,"Big Turtle Wind Farm Two","REC","GREEN_E_ENERGY","WIND","2021-06-01T00:00:00.000Z",-540,"2021-06-30T23:59:59.999Z",-540
"20211115_3D_PL_transaction_1_attestation_14","US_GreenE_640MWh_Oct2020_to_August2021.pdf","bafkreigkh3g2heecbfobxbzyqvwp5gxlefqdrojumbu5clnl3rjujsokxi","US_GreenE_640MWh_Oct2020_to_August2021_certificate_6","bafyreihk5hjq7r23ler52axmtmdngmeg7cxfc6ovsdrqx5vck4kvr77s64","2021-08-01T00:00:00.000Z",-540,"2021-08-31T23:59:59.999Z",-540,"3Degrees Group, Inc","235 Montgomery St Suite 320 CA94104 San Francisco US","US","RFC",1000000,"Big Turtle Wind Farm Two","REC","GREEN_E_ENERGY","WIND","2021-08-01T00:00:00.000Z",-540,"2021-08-31T23:59:59.999Z",-540
"20211115_3D_PL_transaction_1_attestation_14","US_GreenE_640MWh_Oct2020_to_August2021.pdf","bafkreigkh3g2heecbfobxbzyqvwp5gxlefqdrojumbu5clnl3rjujsokxi","US_GreenE_640MWh_Oct2020_to_August2021_certificate_7","bafyreihoq3ccqntqojrve6xqjqceghfdngxufflpgjasklr6rlmxkvqoq4","2020-09-01T00:00:00.000Z",-540,"2020-09-30T23:59:59.999Z",-540,"3Degrees Group, Inc","235 Montgomery St Suite 320 CA94104 San Francisco US","US","RFC",1000000,"Brook View Dairy 1","REC","GREEN_E_ENERGY","BIOGAS","2020-09-01T00:00:00.000Z",-540,"2020-09-30T23:59:59.999Z",-540
"20211115_3D_PL_transaction_1_attestation_14","US_GreenE_640MWh_Oct2020_to_August2021.pdf","bafkreigkh3g2heecbfobxbzyqvwp5gxlefqdrojumbu5clnl3rjujsokxi","US_GreenE_640MWh_Oct2020_to_August2021_certificate_8","bafyreidlzh3jf3a6dtraxbmi4qephgeucadj67pxtnsmvkyr2yocrdrynm","2021-04-01T00:00:00.000Z",-540,"2021-04-30T23:59:59.999Z",-540,"3Degrees Group, Inc","235 Montgomery St Suite 320 CA94104 San Francisco US","US","NPCC",2000000,"Caribou Solar LLC","REC","GREEN_E_ENERGY","SOLAR","2021-04-01T00:00:00.000Z",-540,"2021-04-30T23:59:59.999Z",-540
"20211115_3D_PL_transaction_1_attestation_14","US_GreenE_640MWh_Oct2020_to_August2021.pdf","bafkreigkh3g2heecbfobxbzyqvwp5gxlefqdrojumbu5clnl3rjujsokxi","US_GreenE_640MWh_Oct2020_to_August2021_certificate_9","bafyreifygmg5bye5bt5dpvmvjs4ftvdajo2cogxiophx5xzccnto5titse","2021-05-01T00:00:00.000Z",-540,"2021-05-31T23:59:59.999Z",-540,"3Degrees Group, Inc","235 Montgomery St Suite 320 CA94104 San Francisco US","US","NPCC",9000000,"Caribou Solar LLC","REC","GREEN_E_ENERGY","SOLAR","2021-05-01T00:00:00.000Z",-540,"2021-05-31T23:59:59.999Z",-540
"20211115_3D_PL_transaction_1_attestation_14","US_GreenE_640MWh_Oct2020_to_August2021.pdf","bafkreigkh3g2heecbfobxbzyqvwp5gxlefqdrojumbu5clnl3rjujsokxi","US_GreenE_640MWh_Oct2020_to_August2021_certificate_10","bafyreibwxp62coki3coghwydh6soyuwzem3tqnuw6koqw6ogvsqqxw4bcy","2021-06-01T00:00:00.000Z",-540,"2021-06-30T23:59:59.999Z",-540,"3Degrees Group, Inc","235 Montgomery St Suite 320 CA94104 San Francisco US","US","NPCC",10000000,"Caribou Solar LLC","REC","GREEN_E_ENERGY","SOLAR","2021-06-01T00:00:00.000Z",-540,"2021-06-30T23:59:59.999Z",-540
"20211115_3D_PL_transaction_1_attestation_14","US_GreenE_640MWh_Oct2020_to_August2021.pdf","bafkreigkh3g2heecbfobxbzyqvwp5gxlefqdrojumbu5clnl3rjujsokxi","US_GreenE_640MWh_Oct2020_to_August2021_certificate_11","bafyreicoda5br6n2cgkoaca4hv4wee52k6axulrlbazixkezmwamxhoibe","2020-11-01T00:00:00.000Z",-600,"2020-11-30T23:59:59.999Z",-600,"3Degrees Group, Inc","235 Montgomery St Suite 320 CA94104 San Francisco US","US","NPCC",6000000,"Cohocton Wind Project (Candigu)","REC","GREEN_E_ENERGY","WIND","2020-11-01T00:00:00.000Z",-600,"2020-11-30T23:59:59.999Z",-600
"20211115_3D_PL_transaction_1_attestation_14","US_GreenE_640MWh_Oct2020_to_August2021.pdf","bafkreigkh3g2heecbfobxbzyqvwp5gxlefqdrojumbu5clnl3rjujsokxi","US_GreenE_640MWh_Oct2020_to_August2021_certificate_12","bafyreice6h6niixujvxrwfrreadipusmp6is4eptjds2wnbq3pl4ojqufu","2021-08-01T00:00:00.000Z",-540,"2021-08-31T23:59:59.999Z",-540,"3Degrees Group, Inc","235 Montgomery St Suite 320 CA94104 San Francisco US","US","WECC",162000000,"GLT Chuckawalla Solar - State of California - Chuckawalla Prison","REC","GREEN_E_ENERGY","SOLAR","2021-08-01T00:00:00.000Z",-540,"2021-08-31T23:59:59.999Z",-540
"20211115_3D_PL_transaction_1_attestation_14","US_GreenE_640MWh_Oct2020_to_August2021.pdf","bafkreigkh3g2heecbfobxbzyqvwp5gxlefqdrojumbu5clnl3rjujsokxi","US_GreenE_640MWh_Oct2020_to_August2021_certificate_13","bafyreibcgsxyqye6gtizyhcttw72oislvx22e65od7vknmbdmhfmmvzbza","2021-02-01T00:00:00.000Z",-600,"2021-02-28T23:59:59.999Z",-600,"3Degrees Group, Inc","235 Montgomery St Suite 320 CA94104 San Francisco US","US","WECC",25000000,"GLT Laguna Solar - San Luis Obispo - Laguna Middle","REC","GREEN_E_ENERGY","SOLAR","2021-02-01T00:00:00.000Z",-600,"2021-02-28T23:59:59.999Z",-600
"20211115_3D_PL_transaction_1_attestation_14","US_GreenE_640MWh_Oct2020_to_August2021.pdf","bafkreigkh3g2heecbfobxbzyqvwp5gxlefqdrojumbu5clnl3rjujsokxi","US_GreenE_640MWh_Oct2020_to_August2021_certificate_14","bafyreigo4prswyxnfwpzajcs3drhifq647bqsoddxqpnxxnazwcnlnosdu","2021-07-01T00:00:00.000Z",-540,"2021-07-31T23:59:59.999Z",-540,"3Degrees Group, Inc","235 Montgomery St Suite 320 CA94104 San Francisco US","US","WECC",28000000,"GLT Laguna Solar - San Luis Obispo - Laguna Middle","REC","GREEN_E_ENERGY","SOLAR","2021-07-01T00:00:00.000Z",-540,"2021-07-31T23:59:59.999Z",-540
"20211115_3D_PL_transaction_1_attestation_14","US_GreenE_640MWh_Oct2020_to_August2021.pdf","bafkreigkh3g2heecbfobxbzyqvwp5gxlefqdrojumbu5clnl3rjujsokxi","US_GreenE_640MWh_Oct2020_to_August2021_certificate_15","bafyreialegyzsulbg4rfg3bttgndwclz2ckit7f4kgfqd5vumz4q4txog4","2021-02-01T00:00:00.000Z",-600,"2021-02-28T23:59:59.999Z",-600,"3Degrees Group, Inc","235 Montgomery St Suite 320 CA94104 San Francisco US","US","WECC",20000000,"GLT Laguna Solar - San Luis Obispo - Laguna Middle","REC","GREEN_E_ENERGY","SOLAR","2021-02-01T00:00:00.000Z",-600,"2021-02-28T23:59:59.999Z",-600
"20211115_3D_PL_transaction_1_attestation_14","US_GreenE_640MWh_Oct2020_to_August2021.pdf","bafkreigkh3g2heecbfobxbzyqvwp5gxlefqdrojumbu5clnl3rjujsokxi","US_GreenE_640MWh_Oct2020_to_August2021_certificate_16","bafyreicwrsv3vr3end2diskqo3gb6bnusnhmrmiiuv7zqszv67h7noarfe","2021-06-01T00:00:00.000Z",-540,"2021-06-30T23:59:59.999Z",-540,"3Degrees Group, Inc","235 Montgomery St Suite 320 CA94104 San Francisco US","US","WECC",13000000,"GLT Laguna Solar - San Luis Obispo - Laguna Middle","REC","GREEN_E_ENERGY","SOLAR","2021-06-01T00:00:00.000Z",-540,"2021-06-30T23:59:59.999Z",-540
"20211115_3D_PL_transaction_1_attestation_14","US_GreenE_640MWh_Oct2020_to_August2021.pdf","bafkreigkh3g2heecbfobxbzyqvwp5gxlefqdrojumbu5clnl3rjujsokxi","US_GreenE_640MWh_Oct2020_to_August2021_certificate_17","bafyreidtoioe6symeqtlxwbmzkifkpxla47skkxwg7oxefphyc2x67pica","2021-07-01T00:00:00.000Z",-540,"2021-07-31T23:59:59.999Z",-540,"3Degrees Group, Inc","235 Montgomery St Suite 320 CA94104 San Francisco US","US","WECC",35000000,"GLT Laguna Solar - San Luis Obispo - Laguna Middle","REC","GREEN_E_ENERGY","SOLAR","2021-07-01T00:00:00.000Z",-540,"2021-07-31T23:59:59.999Z",-540
"20211115_3D_PL_transaction_1_attestation_14","US_GreenE_640MWh_Oct2020_to_August2021.pdf","bafkreigkh3g2heecbfobxbzyqvwp5gxlefqdrojumbu5clnl3rjujsokxi","US_GreenE_640MWh_Oct2020_to_August2021_certificate_18","bafyreieh5hy7vxb7fzlvt5htznqky5fq2gazzujpovlevn2tiw7joocqfe","2021-02-01T00:00:00.000Z",-600,"2021-02-28T23:59:59.999Z",-600,"3Degrees Group, Inc","235 Montgomery St Suite 320 CA94104 San Francisco US","US","WECC",18000000,"GLT Los Rob 160 - DDRC Marengo","REC","GREEN_E_ENERGY","SOLAR","2021-02-01T00:00:00.000Z",-600,"2021-02-28T23:59:59.999Z",-600
"20211115_3D_PL_transaction_1_attestation_14","US_GreenE_640MWh_Oct2020_to_August2021.pdf","bafkreigkh3g2heecbfobxbzyqvwp5gxlefqdrojumbu5clnl3rjujsokxi","US_GreenE_640MWh_Oct2020_to_August2021_certificate_19","bafyreiapxdvdcphgoswbxo54weuprm7uk2jlqbwgzdtxao6sbigzqut24m","2021-03-01T00:00:00.000Z",-540,"2021-03-31T23:59:59.999Z",-540,"3Degrees Group, Inc","235 Montgomery St Suite 320 CA94104 San Francisco US","US","WECC",23000000,"GLT Los Rob 160 - DDRC Marengo","REC","GREEN_E_ENERGY","SOLAR","2021-03-01T00:00:00.000Z",-540,"2021-03-31T23:59:59.999Z",-540
"20211115_3D_PL_transaction_1_attestation_14","US_GreenE_640MWh_Oct2020_to_August2021.pdf","bafkreigkh3g2heecbfobxbzyqvwp5gxlefqdrojumbu5clnl3rjujsokxi","US_GreenE_640MWh_Oct2020_to_August2021_certificate_20","bafyreief7hhhievz6sq3z6dyoqtmha3b6sjpmgim5y36knkoavpgjvuwoe","2021-06-01T00:00:00.000Z",-540,"2021-06-30T23:59:59.999Z",-540,"3Degrees Group, Inc","235 Montgomery St Suite 320 CA94104 San Francisco US","US","WECC",24000000,"GLT Los Rob 160 - DDRC Marengo","REC","GREEN_E_ENERGY","SOLAR","2021-06-01T00:00:00.000Z",-540,"2021-06-30T23:59:59.999Z",-540
"20211115_3D_PL_transaction_1_attestation_14","US_GreenE_640MWh_Oct2020_to_August2021.pdf","bafkreigkh3g2heecbfobxbzyqvwp5gxlefqdrojumbu5clnl3rjujsokxi","US_GreenE_640MWh_Oct2020_to_August2021_certificate_21","bafyreignhkalds6qgkp4anpjcgkqeyiijctw73qihjed65734k4to2qdhi","2021-07-01T00:00:00.000Z",-540,"2021-07-31T23:59:59.999Z",-540,"3Degrees Group, Inc","235 Montgomery St Suite 320 CA94104 San Francisco US","US","WECC",23000000,"GLT Los Rob 160 - DDRC Marengo","REC","GREEN_E_ENERGY","SOLAR","2021-07-01T00:00:00.000Z",-540,"2021-07-31T23:59:59.999Z",-540
"20211115_3D_PL_transaction_1_attestation_14","US_GreenE_640MWh_Oct2020_to_August2021.pdf","bafkreigkh3g2heecbfobxbzyqvwp5gxlefqdrojumbu5clnl3rjujsokxi","US_GreenE_640MWh_Oct2020_to_August2021_certificate_22","bafyreieryw3ymyxk3fuz6fw7kqfxgfqykhaztal4bgvt5sopd7kbrdfgae","2021-05-01T00:00:00.000Z",-540,"2021-05-31T23:59:59.999Z",-540,"3Degrees Group, Inc","235 Montgomery St Suite 320 CA94104 San Francisco US","US","WECC",9000000,"GLT Los Rob 160 - DDRC Marengo","REC","GREEN_E_ENERGY","SOLAR","2021-05-01T00:00:00.000Z",-540,"2021-05-31T23:59:59.999Z",-540
"20211115_3D_PL_transaction_1_attestation_14","US_GreenE_640MWh_Oct2020_to_August2021.pdf","bafkreigkh3g2heecbfobxbzyqvwp5gxlefqdrojumbu5clnl3rjujsokxi","US_GreenE_640MWh_Oct2020_to_August2021_certificate_23","bafyreiauh7y7i6wqmxjfj5wisoqwkwdykkwtluv555fvr2lnyjkhglclgu","2021-06-01T00:00:00.000Z",-540,"2021-06-30T23:59:59.999Z",-540,"3Degrees Group, Inc","235 Montgomery St Suite 320 CA94104 San Francisco US","US","WECC",9000000,"GLT Los Rob 160 - DDRC Marengo","REC","GREEN_E_ENERGY","SOLAR","2021-06-01T00:00:00.000Z",-540,"2021-06-30T23:59:59.999Z",-540
"20211115_3D_PL_transaction_1_attestation_14","US_GreenE_640MWh_Oct2020_to_August2021.pdf","bafkreigkh3g2heecbfobxbzyqvwp5gxlefqdrojumbu5clnl3rjujsokxi","US_GreenE_640MWh_Oct2020_to_August2021_certificate_24","bafyreiejhkaimb7cll4d5vnbc5wx6y6cws3fwqoqaecesvxjrrtxxo7coe","2021-07-01T00:00:00.000Z",-540,"2021-07-31T23:59:59.999Z",-540,"3Degrees Group, Inc","235 Montgomery St Suite 320 CA94104 San Francisco US","US","WECC",9000000,"GLT Los Rob 160 - DDRC Marengo","REC","GREEN_E_ENERGY","SOLAR","2021-07-01T00:00:00.000Z",-540,"2021-07-31T23:59:59.999Z",-540
"20211115_3D_PL_transaction_1_attestation_14","US_GreenE_640MWh_Oct2020_to_August2021.pdf","bafkreigkh3g2heecbfobxbzyqvwp5gxlefqdrojumbu5clnl3rjujsokxi","US_GreenE_640MWh_Oct2020_to_August2021_certificate_25","bafyreidixolrkszf4znsperj5qtqlr2xxqdzkvljju2lnuskuo3xkild6y","2021-06-01T00:00:00.000Z",-540,"2021-06-30T23:59:59.999Z",-540,"3Degrees Group, Inc","235 Montgomery St Suite 320 CA94104 San Francisco US","US","WECC",19000000,"GLT The Pike 115 - DDRC Long Beach","REC","GREEN_E_ENERGY","SOLAR","2021-06-01T00:00:00.000Z",-540,"2021-06-30T23:59:59.999Z",-540
"20211115_3D_PL_transaction_1_attestation_14","US_GreenE_640MWh_Oct2020_to_August2021.pdf","bafkreigkh3g2heecbfobxbzyqvwp5gxlefqdrojumbu5clnl3rjujsokxi","US_GreenE_640MWh_Oct2020_to_August2021_certificate_26","bafyreibteyue5va3odess6svt5res33gudr5wvu3oihmzkgioal3gcvp3m","2021-07-01T00:00:00.000Z",-540,"2021-07-31T23:59:59.999Z",-540,"3Degrees Group, Inc","235 Montgomery St Suite 320 CA94104 San Francisco US","US","WECC",20000000,"GLT The Pike 115 - DDRC Long Beach","REC","GREEN_E_ENERGY","SOLAR","2021-07-01T00:00:00.000Z",-540,"2021-07-31T23:59:59.999Z",-540
"20211115_3D_PL_transaction_1_attestation_14","US_GreenE_640MWh_Oct2020_to_August2021.pdf","bafkreigkh3g2heecbfobxbzyqvwp5gxlefqdrojumbu5clnl3rjujsokxi","US_GreenE_640MWh_Oct2020_to_August2021_certificate_27","bafyreibzqlomlhu27yc4ihg4gywhd2dkd4sc6hdgwn5pvouncyovgy3giy","2021-04-01T00:00:00.000Z",-540,"2021-04-30T23:59:59.999Z",-540,"3Degrees Group, Inc","235 Montgomery St Suite 320 CA94104 San Francisco US","US","WECC",14000000,"GLT The Pike 150 - DDRC Long Beach","REC","GREEN_E_ENERGY","SOLAR","2021-04-01T00:00:00.000Z",-540,"2021-04-30T23:59:59.999Z",-540
"20211115_3D_PL_transaction_1_attestation_14","US_GreenE_640MWh_Oct2020_to_August2021.pdf","bafkreigkh3g2heecbfobxbzyqvwp5gxlefqdrojumbu5clnl3rjujsokxi","US_GreenE_640MWh_Oct2020_to_August2021_certificate_28","bafyreidvj2mf7xbcup5krtmp7yjxy6qylspb6iqp3oihyqzjfv7kq6zu5q","2021-05-01T00:00:00.000Z",-540,"2021-05-31T23:59:59.999Z",-540,"3Degrees Group, Inc","235 Montgomery St Suite 320 CA94104 San Francisco US","US","WECC",15000000,"GLT The Pike 150 - DDRC Long Beach","REC","GREEN_E_ENERGY","SOLAR","2021-05-01T00:00:00.000Z",-540,"2021-05-31T23:59:59.999Z",-540
"20211115_3D_PL_transaction_1_attestation_14","US_GreenE_640MWh_Oct2020_to_August2021.pdf","bafkreigkh3g2heecbfobxbzyqvwp5gxlefqdrojumbu5clnl3rjujsokxi","US_GreenE_640MWh_Oct2020_to_August2021_certificate_29","bafyreibecubzvmdovfes4teorgmerrsxaxxa27cozx6nu2g7gylokxkgci","2021-06-01T00:00:00.000Z",-540,"2021-06-30T23:59:59.999Z",-540,"3Degrees Group, Inc","235 Montgomery St Suite 320 CA94104 San Francisco US","US","WECC",15000000,"GLT The Pike 150 - DDRC Long Beach","REC","GREEN_E_ENERGY","SOLAR","2021-06-01T00:00:00.000Z",-540,"2021-06-30T23:59:59.999Z",-540
"20211115_3D_PL_transaction_1_attestation_14","US_GreenE_640MWh_Oct2020_to_August2021.pdf","bafkreigkh3g2heecbfobxbzyqvwp5gxlefqdrojumbu5clnl3rjujsokxi","US_GreenE_640MWh_Oct2020_to_August2021_certificate_30","bafyreia4qhsayiqhxik232il6c4ef3zwehd2wmv55ohz5ahbpbarl7btba","2021-07-01T00:00:00.000Z",-540,"2021-07-31T23:59:59.999Z",-540,"3Degrees Group, Inc","235 Montgomery St Suite 320 CA94104 San Francisco US","US","WECC",15000000,"GLT The Pike 150 - DDRC Long Beach","REC","GREEN_E_ENERGY","SOLAR","2021-07-01T00:00:00.000Z",-540,"2021-07-31T23:59:59.999Z",-540
"20211115_3D_PL_transaction_1_attestation_14","US_GreenE_640MWh_Oct2020_to_August2021.pdf","bafkreigkh3g2heecbfobxbzyqvwp5gxlefqdrojumbu5clnl3rjujsokxi","US_GreenE_640MWh_Oct2020_to_August2021_certificate_31","bafyreiebbobiukoq5z23bgmnnkgfkug2bxyjfkekk72efafb5jmhkgkksi","2021-04-01T00:00:00.000Z",-360,"2021-04-30T23:59:59.999Z",-360,"3Degrees Group, Inc","235 Montgomery St Suite 320 CA94104 San Francisco US","CA",,5000000,"Hermanville Wind Farm","REC","GREEN_E_ENERGY","WIND","2021-04-01T00:00:00.000Z",-360,"2021-04-30T23:59:59.999Z",-360
"20211115_3D_PL_transaction_1_attestation_14","US_GreenE_640MWh_Oct2020_to_August2021.pdf","bafkreigkh3g2heecbfobxbzyqvwp5gxlefqdrojumbu5clnl3rjujsokxi","US_GreenE_640MWh_Oct2020_to_August2021_certificate_32","bafyreiazkg4ojjln54jll6o44zg3o4odfxlt6xrrsdwss2vvgik7jubu3e","2021-05-01T00:00:00.000Z",-360,"2021-05-31T23:59:59.999Z",-360,"3Degrees Group, Inc","235 Montgomery St Suite 320 CA94104 San Francisco US","CA",,4000000,"Hermanville Wind Farm","REC","GREEN_E_ENERGY","WIND","2021-05-01T00:00:00.000Z",-360,"2021-05-31T23:59:59.999Z",-360
"20211115_3D_PL_transaction_1_attestation_14","US_GreenE_640MWh_Oct2020_to_August2021.pdf","bafkreigkh3g2heecbfobxbzyqvwp5gxlefqdrojumbu5clnl3rjujsokxi","US_GreenE_640MWh_Oct2020_to_August2021_certificate_33","bafyreibysbtuiwuay4lw3naoufwziig23qj23kkk7bfvvekv7jkw2yek2u","2021-06-01T00:00:00.000Z",-360,"2021-06-30T23:59:59.999Z",-360,"3Degrees Group, Inc","235 Montgomery St Suite 320 CA94104 San Francisco US","CA",,3000000,"Hermanville Wind Farm","REC","GREEN_E_ENERGY","WIND","2021-06-01T00:00:00.000Z",-360,"2021-06-30T23:59:59.999Z",-360
"20211115_3D_PL_transaction_1_attestation_14","US_GreenE_640MWh_Oct2020_to_August2021.pdf","bafkreigkh3g2heecbfobxbzyqvwp5gxlefqdrojumbu5clnl3rjujsokxi","US_GreenE_640MWh_Oct2020_to_August2021_certificate_34","bafyreifbpirxy3r2nydoovygiz5dluyw6rd2cw4n23m7ibrebfq6gmh5te","2021-04-01T00:00:00.000Z",-540,"2021-04-30T23:59:59.999Z",-540,"3Degrees Group, Inc","235 Montgomery St Suite 320 CA94104 San Francisco US","US","RFC",2000000,"Jordan Creek Wind Farm","REC","GREEN_E_ENERGY","WIND","2021-04-01T00:00:00.000Z",-540,"2021-04-30T23:59:59.999Z",-540
"20211115_3D_PL_transaction_1_attestation_14","US_GreenE_640MWh_Oct2020_to_August2021.pdf","bafkreigkh3g2heecbfobxbzyqvwp5gxlefqdrojumbu5clnl3rjujsokxi","US_GreenE_640MWh_Oct2020_to_August2021_certificate_35","bafyreigb4bk7r3qbtivoaah5sg7xpngdwiqkzbkbj3uosfojplrnipkwnq","2021-01-01T00:00:00.000Z",-600,"2021-01-31T23:59:59.999Z",-600,"3Degrees Group, Inc","235 Montgomery St Suite 320 CA94104 San Francisco US","US","WECC",22000000,"Meridian Vineyards - Meridian Red Tank RT PV1","REC","GREEN_E_ENERGY","SOLAR","2021-01-01T00:00:00.000Z",-600,"2021-01-31T23:59:59.999Z",-600
"20211115_3D_PL_transaction_1_attestation_14","US_GreenE_640MWh_Oct2020_to_August2021.pdf","bafkreigkh3g2heecbfobxbzyqvwp5gxlefqdrojumbu5clnl3rjujsokxi","US_GreenE_640MWh_Oct2020_to_August2021_certificate_36","bafyreihwksfamnucu6f3l2oh5gqgfwjpoynkjdby3zfudirevtfbh5f6bu","2020-10-01T00:00:00.000Z",-540,"2020-10-31T23:59:59.999Z",-540,"3Degrees Group, Inc","235 Montgomery St Suite 320 CA94104 San Francisco US","US","RFC",1000000,"Milford Raman Solar, LLC","REC","GREEN_E_ENERGY","SOLAR","2020-10-01T00:00:00.000Z",-540,"2020-10-31T23:59:59.999Z",-540
"20211115_3D_PL_transaction_1_attestation_14","US_GreenE_640MWh_Oct2020_to_August2021.pdf","bafkreigkh3g2heecbfobxbzyqvwp5gxlefqdrojumbu5clnl3rjujsokxi","US_GreenE_640MWh_Oct2020_to_August2021_certificate_37","bafyreihsxtzw57ehtmh6zuvzmoovrh5mx22tuo4oaz6owukmubkdz3uqy4","2021-01-01T00:00:00.000Z",-600,"2021-01-31T23:59:59.999Z",-600,"3Degrees Group, Inc","235 Montgomery St Suite 320 CA94104 San Francisco US","US","WECC",32000000,"Milpitas High School Solar","REC","GREEN_E_ENERGY","SOLAR","2021-01-01T00:00:00.000Z",-600,"2021-01-31T23:59:59.999Z",-600
"20211115_3D_PL_transaction_1_attestation_14","US_GreenE_640MWh_Oct2020_to_August2021.pdf","bafkreigkh3g2heecbfobxbzyqvwp5gxlefqdrojumbu5clnl3rjujsokxi","US_GreenE_640MWh_Oct2020_to_August2021_certificate_38","bafyreib2f3hueksn6te2lqmtfa7vx2kjc5hnzxwexe5z2riwmr2rdrtz4u","2021-03-01T00:00:00.000Z",-540,"2021-03-31T23:59:59.999Z",-540,"3Degrees Group, Inc","235 Montgomery St Suite 320 CA94104 San Francisco US","US","WECC",1000000,"Red Bluff Joint Union High School - Red Bluff 1","REC","GREEN_E_ENERGY","SOLAR","2021-03-01T00:00:00.000Z",-540,"2021-03-31T23:59:59.999Z",-540
"20211115_3D_PL_transaction_1_attestation_14","US_GreenE_640MWh_Oct2020_to_August2021.pdf","bafkreigkh3g2heecbfobxbzyqvwp5gxlefqdrojumbu5clnl3rjujsokxi","US_GreenE_640MWh_Oct2020_to_August2021_certificate_39","bafyreidmlejv3dkrpzgwnwedqfbplgjtmtf4k2tutvktztpdvehioef5iu","2021-02-01T00:00:00.000Z",-600,"2021-02-28T23:59:59.999Z",-600,"3Degrees Group, Inc","235 Montgomery St Suite 320 CA94104 San Francisco US","US","WECC",1000000,"Red Bluff Joint Union High School - Red Bluff 1","REC","GREEN_E_ENERGY","SOLAR","2021-02-01T00:00:00.000Z",-600,"2021-02-28T23:59:59.999Z",-600
"20211115_3D_PL_transaction_1_attestation_14","US_GreenE_640MWh_Oct2020_to_August2021.pdf","bafkreigkh3g2heecbfobxbzyqvwp5gxlefqdrojumbu5clnl3rjujsokxi","US_GreenE_640MWh_Oct2020_to_August2021_certificate_40","bafyreidss57qtzuiyweh272igdct6debosttzadqzn6uy7mkqtakivtn4e","2020-11-01T00:00:00.000Z",-600,"2020-11-30T23:59:59.999Z",-600,"3Degrees Group, Inc","235 Montgomery St Suite 320 CA94104 San Francisco US","US","RFC",1000000,"Rosewater Wind Project","REC","GREEN_E_ENERGY","WIND","2020-11-01T00:00:00.000Z",-600,"2020-11-30T23:59:59.999Z",-600
"20211115_3D_PL_transaction_1_attestation_14","US_GreenE_640MWh_Oct2020_to_August2021.pdf","bafkreigkh3g2heecbfobxbzyqvwp5gxlefqdrojumbu5clnl3rjujsokxi","US_GreenE_640MWh_Oct2020_to_August2021_certificate_41","bafyreiccec5ovje4uxamsls2kyoamrqdo6zuozsmjmb3n6l5tsdzygxfva","2020-12-01T00:00:00.000Z",-600,"2020-12-31T23:59:59.999Z",-600,"3Degrees Group, Inc","235 Montgomery St Suite 320 CA94104 San Francisco US","US","RFC",1000000,"Rosewater Wind Project","REC","GREEN_E_ENERGY","WIND","2020-12-01T00:00:00.000Z",-600,"2020-12-31T23:59:59.999Z",-600
"20211115_3D_PL_transaction_1_attestation_14","US_GreenE_640MWh_Oct2020_to_August2021.pdf","bafkreigkh3g2heecbfobxbzyqvwp5gxlefqdrojumbu5clnl3rjujsokxi","US_GreenE_640MWh_Oct2020_to_August2021_certificate_42","bafyreibzfwzlrjetyrpeasozh7bblzntb23tecasssutmsc6plxsg4fgou","2021-07-01T00:00:00.000Z",-540,"2021-07-31T23:59:59.999Z",-540,"3Degrees Group, Inc","235 Montgomery St Suite 320 CA94104 San Francisco US","US","RFC",1000000,"Rosewater Wind Project","REC","GREEN_E_ENERGY","WIND","2021-07-01T00:00:00.000Z",-540,"2021-07-31T23:59:59.999Z",-540
"20211115_3D_PL_transaction_1_attestation_14","US_GreenE_640MWh_Oct2020_to_August2021.pdf","bafkreigkh3g2heecbfobxbzyqvwp5gxlefqdrojumbu5clnl3rjujsokxi","US_GreenE_640MWh_Oct2020_to_August2021_certificate_43","bafyreigwyukmycv3l3sq73yocdiofhkboqoirvxmognhtz2v4tvg6rohoa","2021-02-01T00:00:00.000Z",-420,"2021-02-28T23:59:59.999Z",-420,"3Degrees Group, Inc","235 Montgomery St Suite 320 CA94104 San Francisco US","CA",,6000000,"St. Joseph Wind Farm","REC","GREEN_E_ENERGY","WIND","2021-02-01T00:00:00.000Z",-420,"2021-02-28T23:59:59.999Z",-420
"20211115_3D_PL_transaction_1_attestation_14","US_GreenE_640MWh_Oct2020_to_August2021.pdf","bafkreigkh3g2heecbfobxbzyqvwp5gxlefqdrojumbu5clnl3rjujsokxi","US_GreenE_640MWh_Oct2020_to_August2021_certificate_44","bafyreidsp4xjra4jz3iscolhrkh4bseonpjzq4b2h4426ebruw4pib4bg4","2021-03-01T00:00:00.000Z",-360,"2021-03-31T23:59:59.999Z",-360,"3Degrees Group, Inc","235 Montgomery St Suite 320 CA94104 San Francisco US","CA",,6000000,"St. Joseph Wind Farm","REC","GREEN_E_ENERGY","WIND","2021-03-01T00:00:00.000Z",-360,"2021-03-31T23:59:59.999Z",-360
"20211115_3D_PL_transaction_1_attestation_14","US_GreenE_640MWh_Oct2020_to_August2021.pdf","bafkreigkh3g2heecbfobxbzyqvwp5gxlefqdrojumbu5clnl3rjujsokxi","US_GreenE_640MWh_Oct2020_to_August2021_certificate_45","bafyreih34yejc2qmyxrnt6fxctz7srmzquwux35463junkzvmwn767ouoi","2020-11-01T00:00:00.000Z",-600,"2020-11-30T23:59:59.999Z",-600,"3Degrees Group, Inc","235 Montgomery St Suite 320 CA94104 San Francisco US","US","NPCC",1000000,"STEEL - STEEL___WIND","REC","GREEN_E_ENERGY","WIND","2020-11-01T00:00:00.000Z",-600,"2020-11-30T23:59:59.999Z",-600
"20211115_3D_PL_transaction_1_attestation_14","US_GreenE_640MWh_Oct2020_to_August2021.pdf","bafkreigkh3g2heecbfobxbzyqvwp5gxlefqdrojumbu5clnl3rjujsokxi","US_GreenE_640MWh_Oct2020_to_August2021_certificate_46","bafyreidwmvw33uohehpfoi42ndgb3xiyseovs33ehp66gzld57lsy3c7gy","2021-01-01T00:00:00.000Z",-600,"2021-01-31T23:59:59.999Z",-600,"3Degrees Group, Inc","235 Montgomery St Suite 320 CA94104 San Francisco US","US","WECC",11000000,"William Burnett Elementary","REC","GREEN_E_ENERGY","SOLAR","2021-01-01T00:00:00.000Z",-600,"2021-01-31T23:59:59.999Z",-600
"20211115_3D_PL_transaction_1_attestation_14","US_GreenE_640MWh_Oct2020_to_August2021.pdf","bafkreigkh3g2heecbfobxbzyqvwp5gxlefqdrojumbu5clnl3rjujsokxi","US_GreenE_640MWh_Oct2020_to_August2021_certificate_47","bafyreibn736e33cuev74fztff3qpdmev5bw4fgydqdskptrzkzpe7admoy","2020-12-01T00:00:00.000Z",-420,"2020-12-31T23:59:59.999Z",-420,"3Degrees Group, Inc","235 Montgomery St Suite 320 CA94104 San Francisco US","CA",,5000000,"Zurich CGS","REC","GREEN_E_ENERGY","WIND","2020-12-01T00:00:00.000Z",-420,"2020-12-31T23:59:59.999Z",-420
"20211115_3D_PL_transaction_1_attestation_14","US_GreenE_640MWh_Oct2020_to_August2021.pdf","bafkreigkh3g2heecbfobxbzyqvwp5gxlefqdrojumbu5clnl3rjujsokxi","US_GreenE_640MWh_Oct2020_to_August2021_certificate_48","bafyreiekgn63ptqojrxrccgsermqdgzytdxtdcg6pyljmcarcrrd4irbeu","2021-01-01T00:00:00.000Z",-420,"2021-01-31T23:59:59.999Z",-420,"3Degrees Group, Inc","235 Montgomery St Suite 320 CA94104 San Francisco US","CA",,5000000,"Zurich CGS","REC","GREEN_E_ENERGY","WIND","2021-01-01T00:00:00.000Z",-420,"2021-01-31T23:59:59.999Z",-420